<?xml version="1.0" encoding="utf-8" standalone="no"?><gpx version="1.1" xmlns="http://www.topografix.com/GPX/1/1" xmlns:xsi="http://www.w3.org/2001/XMLSchema-instance" xsi:schemaLocation="http://www.topografix.com/GPX/1/1 http://www.topografix.com/GPX/1/1/gpx.xsd" creator="Paddle Planner.com"><metadata><link href="https://www.paddleplanner.com"><text>Paddle Planner.com</text></link></metadata><wpt lat="46.16847" lon="-81.51816"><name>42000</name><desc>Killarney Portage 42000, ~117 meters (23 rods)</desc><link href="https://www.paddleplanner.com/tools/portage.aspx?portid=42000"><text>More info on Paddle Planner.com</text></link><sym>Trail Head</sym><type>Portage</type></wpt><wpt lat="46.1675" lon="-81.51876"><name>42000</name><desc>Killarney Portage 42000, ~117 meters (23 rods)</desc><link href="https://www.paddleplanner.com/tools/portage.aspx?portid=42000"><text>More info on Paddle Planner.com</text></link><sym>Trail Head</sym><type>Portage</type></wpt><wpt lat="46.16899" lon="-81.36216"><name>42001</name><desc>Killarney Portage 42001, ~362 meters (72 rods)</desc><link href="https://www.paddleplanner.com/tools/portage.aspx?portid=42001"><text>More info on Paddle Planner.com</text></link><sym>Trail Head</sym><type>Portage</type></wpt><wpt lat="46.16577" lon="-81.36145"><name>42001</name><desc>Killarney Portage 42001, ~362 meters (72 rods)</desc><link href="https://www.paddleplanner.com/tools/portage.aspx?portid=42001"><text>More info on Paddle Planner.com</text></link><sym>Trail Head</sym><type>Portage</type></wpt><wpt lat="46.15644" lon="-81.37151"><name>42002</name><desc>Killarney Portage 42002, ~143 meters (28 rods)</desc><link href="https://www.paddleplanner.com/tools/portage.aspx?portid=42002"><text>More info on Paddle Planner.com</text></link><sym>Trail Head</sym><type>Portage</type></wpt><wpt lat="46.15547" lon="-81.37273"><name>42002</name><desc>Killarney Portage 42002, ~143 meters (28 rods)</desc><link href="https://www.paddleplanner.com/tools/portage.aspx?portid=42002"><text>More info on Paddle Planner.com</text></link><sym>Trail Head</sym><type>Portage</type></wpt><wpt lat="46.15747" lon="-81.33887"><name>42003</name><desc>Killarney Portage 42003, ~2478 meters (493 rods)</desc><link href="https://www.paddleplanner.com/tools/portage.aspx?portid=42003"><text>More info on Paddle Planner.com</text></link><sym>Trail Head</sym><type>Portage</type></wpt><wpt lat="46.14563" lon="-81.31931"><name>42003</name><desc>Killarney Portage 42003, ~2478 meters (493 rods)</desc><link href="https://www.paddleplanner.com/tools/portage.aspx?portid=42003"><text>More info on Paddle Planner.com</text></link><sym>Trail Head</sym><type>Portage</type></wpt><wpt lat="46.14361" lon="-81.58748"><name>42004</name><desc>Killarney Portage 42004, ~321 meters (64 rods)</desc><link href="https://www.paddleplanner.com/tools/portage.aspx?portid=42004"><text>More info on Paddle Planner.com</text></link><sym>Trail Head</sym><type>Portage</type></wpt><wpt lat="46.14387" lon="-81.5842"><name>42004</name><desc>Killarney Portage 42004, ~321 meters (64 rods)</desc><link href="https://www.paddleplanner.com/tools/portage.aspx?portid=42004"><text>More info on Paddle Planner.com</text></link><sym>Trail Head</sym><type>Portage</type></wpt><wpt lat="46.14481" lon="-81.55807"><name>42005</name><desc>Killarney Portage 42005, ~1177 meters (234 rods)</desc><link href="https://www.paddleplanner.com/tools/portage.aspx?portid=42005"><text>More info on Paddle Planner.com</text></link><sym>Trail Head</sym><type>Portage</type></wpt><wpt lat="46.13667" lon="-81.55831"><name>42005</name><desc>Killarney Portage 42005, ~1177 meters (234 rods)</desc><link href="https://www.paddleplanner.com/tools/portage.aspx?portid=42005"><text>More info on Paddle Planner.com</text></link><sym>Trail Head</sym><type>Portage</type></wpt><wpt lat="46.13412" lon="-81.58909"><name>42006</name><desc>Killarney Portage 42006, ~1831 meters (364 rods)</desc><link href="https://www.paddleplanner.com/tools/portage.aspx?portid=42006"><text>More info on Paddle Planner.com</text></link><sym>Trail Head</sym><type>Portage</type></wpt><wpt lat="46.13544" lon="-81.56579"><name>42006</name><desc>Killarney Portage 42006, ~1831 meters (364 rods)</desc><link href="https://www.paddleplanner.com/tools/portage.aspx?portid=42006"><text>More info on Paddle Planner.com</text></link><sym>Trail Head</sym><type>Portage</type></wpt><wpt lat="46.1359" lon="-81.304"><name>42007</name><desc>Killarney Portage 42007, ~241 meters (48 rods)</desc><link href="https://www.paddleplanner.com/tools/portage.aspx?portid=42007"><text>More info on Paddle Planner.com</text></link><sym>Trail Head</sym><type>Portage</type></wpt><wpt lat="46.134" lon="-81.30515"><name>42007</name><desc>Killarney Portage 42007, ~241 meters (48 rods)</desc><link href="https://www.paddleplanner.com/tools/portage.aspx?portid=42007"><text>More info on Paddle Planner.com</text></link><sym>Trail Head</sym><type>Portage</type></wpt><wpt lat="46.134" lon="-81.30515"><name>42008</name><desc>Killarney Portage 42008, ~219 meters (44 rods)</desc><link href="https://www.paddleplanner.com/tools/portage.aspx?portid=42008"><text>More info on Paddle Planner.com</text></link><sym>Trail Head</sym><type>Portage</type></wpt><wpt lat="46.13237" lon="-81.30671"><name>42008</name><desc>Killarney Portage 42008, ~219 meters (44 rods)</desc><link href="https://www.paddleplanner.com/tools/portage.aspx?portid=42008"><text>More info on Paddle Planner.com</text></link><sym>Trail Head</sym><type>Portage</type></wpt><wpt lat="46.12897" lon="-81.56029"><name>42009</name><desc>Killarney Portage 42009, ~1259 meters (250 rods)</desc><link href="https://www.paddleplanner.com/tools/portage.aspx?portid=42009"><text>More info on Paddle Planner.com</text></link><sym>Trail Head</sym><type>Portage</type></wpt><wpt lat="46.11869" lon="-81.56313"><name>42009</name><desc>Killarney Portage 42009, ~1259 meters (250 rods)</desc><link href="https://www.paddleplanner.com/tools/portage.aspx?portid=42009"><text>More info on Paddle Planner.com</text></link><sym>Trail Head</sym><type>Portage</type></wpt><wpt lat="46.11975" lon="-81.23562"><name>42010</name><desc>Killarney Portage 42010, ~40 meters (8 rods)</desc><link href="https://www.paddleplanner.com/tools/portage.aspx?portid=42010"><text>More info on Paddle Planner.com</text></link><sym>Trail Head</sym><type>Portage</type></wpt><wpt lat="46.12002" lon="-81.23597"><name>42010</name><desc>Killarney Portage 42010, ~40 meters (8 rods)</desc><link href="https://www.paddleplanner.com/tools/portage.aspx?portid=42010"><text>More info on Paddle Planner.com</text></link><sym>Trail Head</sym><type>Portage</type></wpt><wpt lat="46.12107" lon="-81.21204"><name>42011</name><desc>Killarney Portage 42011, ~188 meters (37 rods)</desc><link href="https://www.paddleplanner.com/tools/portage.aspx?portid=42011"><text>More info on Paddle Planner.com</text></link><sym>Trail Head</sym><type>Portage</type></wpt><wpt lat="46.11946" lon="-81.21279"><name>42011</name><desc>Killarney Portage 42011, ~188 meters (37 rods)</desc><link href="https://www.paddleplanner.com/tools/portage.aspx?portid=42011"><text>More info on Paddle Planner.com</text></link><sym>Trail Head</sym><type>Portage</type></wpt><wpt lat="46.11929" lon="-81.23503"><name>42012</name><desc>Killarney Portage 42012, ~99 meters (20 rods)</desc><link href="https://www.paddleplanner.com/tools/portage.aspx?portid=42012"><text>More info on Paddle Planner.com</text></link><sym>Trail Head</sym><type>Portage</type></wpt><wpt lat="46.11861" lon="-81.2342"><name>42012</name><desc>Killarney Portage 42012, ~99 meters (20 rods)</desc><link href="https://www.paddleplanner.com/tools/portage.aspx?portid=42012"><text>More info on Paddle Planner.com</text></link><sym>Trail Head</sym><type>Portage</type></wpt><wpt lat="46.11869" lon="-81.56313"><name>42013</name><desc>Killarney Portage 42013, ~756 meters (150 rods)</desc><link href="https://www.paddleplanner.com/tools/portage.aspx?portid=42013"><text>More info on Paddle Planner.com</text></link><sym>Trail Head</sym><type>Portage</type></wpt><wpt lat="46.11374" lon="-81.55905"><name>42013</name><desc>Killarney Portage 42013, ~756 meters (150 rods)</desc><link href="https://www.paddleplanner.com/tools/portage.aspx?portid=42013"><text>More info on Paddle Planner.com</text></link><sym>Trail Head</sym><type>Portage</type></wpt><wpt lat="46.08852" lon="-81.31723"><name>42014</name><desc>Killarney Portage 42014, ~185 meters (37 rods)</desc><link href="https://www.paddleplanner.com/tools/portage.aspx?portid=42014"><text>More info on Paddle Planner.com</text></link><sym>Trail Head</sym><type>Portage</type></wpt><wpt lat="46.08796" lon="-81.31499"><name>42014</name><desc>Killarney Portage 42014, ~185 meters (37 rods)</desc><link href="https://www.paddleplanner.com/tools/portage.aspx?portid=42014"><text>More info on Paddle Planner.com</text></link><sym>Trail Head</sym><type>Portage</type></wpt><wpt lat="46.08852" lon="-81.31723"><name>42015</name><desc>Killarney Portage 42015, ~142 meters (28 rods)</desc><link href="https://www.paddleplanner.com/tools/portage.aspx?portid=42015"><text>More info on Paddle Planner.com</text></link><sym>Trail Head</sym><type>Portage</type></wpt><wpt lat="46.08731" lon="-81.31754"><name>42015</name><desc>Killarney Portage 42015, ~142 meters (28 rods)</desc><link href="https://www.paddleplanner.com/tools/portage.aspx?portid=42015"><text>More info on Paddle Planner.com</text></link><sym>Trail Head</sym><type>Portage</type></wpt><wpt lat="46.08574" lon="-81.32875"><name>42016</name><desc>Killarney Portage 42016, ~989 meters (197 rods)</desc><link href="https://www.paddleplanner.com/tools/portage.aspx?portid=42016"><text>More info on Paddle Planner.com</text></link><sym>Trail Head</sym><type>Portage</type></wpt><wpt lat="46.08852" lon="-81.31723"><name>42016</name><desc>Killarney Portage 42016, ~989 meters (197 rods)</desc><link href="https://www.paddleplanner.com/tools/portage.aspx?portid=42016"><text>More info on Paddle Planner.com</text></link><sym>Trail Head</sym><type>Portage</type></wpt><wpt lat="46.08139" lon="-81.30563"><name>42017</name><desc>Killarney Portage 42017, ~130 meters (26 rods)</desc><link href="https://www.paddleplanner.com/tools/portage.aspx?portid=42017"><text>More info on Paddle Planner.com</text></link><sym>Trail Head</sym><type>Portage</type></wpt><wpt lat="46.08077" lon="-81.3042"><name>42017</name><desc>Killarney Portage 42017, ~130 meters (26 rods)</desc><link href="https://www.paddleplanner.com/tools/portage.aspx?portid=42017"><text>More info on Paddle Planner.com</text></link><sym>Trail Head</sym><type>Portage</type></wpt><wpt lat="46.07885" lon="-81.30014"><name>42018</name><desc>Killarney Portage 42018, ~407 meters (81 rods)</desc><link href="https://www.paddleplanner.com/tools/portage.aspx?portid=42018"><text>More info on Paddle Planner.com</text></link><sym>Trail Head</sym><type>Portage</type></wpt><wpt lat="46.08077" lon="-81.3042"><name>42018</name><desc>Killarney Portage 42018, ~407 meters (81 rods)</desc><link href="https://www.paddleplanner.com/tools/portage.aspx?portid=42018"><text>More info on Paddle Planner.com</text></link><sym>Trail Head</sym><type>Portage</type></wpt><wpt lat="46.07265" lon="-81.30005"><name>42019</name><desc>Killarney Portage 42019, ~720 meters (143 rods)</desc><link href="https://www.paddleplanner.com/tools/portage.aspx?portid=42019"><text>More info on Paddle Planner.com</text></link><sym>Trail Head</sym><type>Portage</type></wpt><wpt lat="46.07885" lon="-81.30014"><name>42019</name><desc>Killarney Portage 42019, ~720 meters (143 rods)</desc><link href="https://www.paddleplanner.com/tools/portage.aspx?portid=42019"><text>More info on Paddle Planner.com</text></link><sym>Trail Head</sym><type>Portage</type></wpt><wpt lat="46.08921" lon="-81.38405"><name>42020</name><desc>Killarney Portage 42020, ~2923 meters (581 rods)</desc><link href="https://www.paddleplanner.com/tools/portage.aspx?portid=42020"><text>More info on Paddle Planner.com</text></link><sym>Trail Head</sym><type>Portage</type></wpt><wpt lat="46.07198" lon="-81.35771"><name>42020</name><desc>Killarney Portage 42020, ~2923 meters (581 rods)</desc><link href="https://www.paddleplanner.com/tools/portage.aspx?portid=42020"><text>More info on Paddle Planner.com</text></link><sym>Trail Head</sym><type>Portage</type></wpt><wpt lat="46.07029" lon="-81.29928"><name>42021</name><desc>Killarney Portage 42021, ~808 meters (161 rods)</desc><link href="https://www.paddleplanner.com/tools/portage.aspx?portid=42021"><text>More info on Paddle Planner.com</text></link><sym>Trail Head</sym><type>Portage</type></wpt><wpt lat="46.06491" lon="-81.29316"><name>42021</name><desc>Killarney Portage 42021, ~808 meters (161 rods)</desc><link href="https://www.paddleplanner.com/tools/portage.aspx?portid=42021"><text>More info on Paddle Planner.com</text></link><sym>Trail Head</sym><type>Portage</type></wpt><wpt lat="46.05037" lon="-81.46775"><name>42022</name><desc>Killarney Portage 42022, ~216 meters (43 rods)</desc><link href="https://www.paddleplanner.com/tools/portage.aspx?portid=42022"><text>More info on Paddle Planner.com</text></link><sym>Trail Head</sym><type>Portage</type></wpt><wpt lat="46.04937" lon="-81.46999"><name>42022</name><desc>Killarney Portage 42022, ~216 meters (43 rods)</desc><link href="https://www.paddleplanner.com/tools/portage.aspx?portid=42022"><text>More info on Paddle Planner.com</text></link><sym>Trail Head</sym><type>Portage</type></wpt><wpt lat="46.05113" lon="-81.3573"><name>42023</name><desc>Killarney Portage 42023, ~1139 meters (226 rods)</desc><link href="https://www.paddleplanner.com/tools/portage.aspx?portid=42023"><text>More info on Paddle Planner.com</text></link><sym>Trail Head</sym><type>Portage</type></wpt><wpt lat="46.05196" lon="-81.3439"><name>42023</name><desc>Killarney Portage 42023, ~1139 meters (226 rods)</desc><link href="https://www.paddleplanner.com/tools/portage.aspx?portid=42023"><text>More info on Paddle Planner.com</text></link><sym>Trail Head</sym><type>Portage</type></wpt><wpt lat="46.13231" lon="-81.63193"><name>42024</name><desc>Killarney Portage 42024, ~1411 meters (281 rods)</desc><link href="https://www.paddleplanner.com/tools/portage.aspx?portid=42024"><text>More info on Paddle Planner.com</text></link><sym>Trail Head</sym><type>Portage</type></wpt><wpt lat="46.13319" lon="-81.61432"><name>42024</name><desc>Killarney Portage 42024, ~1411 meters (281 rods)</desc><link href="https://www.paddleplanner.com/tools/portage.aspx?portid=42024"><text>More info on Paddle Planner.com</text></link><sym>Trail Head</sym><type>Portage</type></wpt><wpt lat="46.0997" lon="-81.5647"><name>42025</name><desc>Killarney Portage 42025, ~65 meters (13 rods)</desc><link href="https://www.paddleplanner.com/tools/portage.aspx?portid=42025"><text>More info on Paddle Planner.com</text></link><sym>Trail Head</sym><type>Portage</type></wpt><wpt lat="46.09926" lon="-81.56418"><name>42025</name><desc>Killarney Portage 42025, ~65 meters (13 rods)</desc><link href="https://www.paddleplanner.com/tools/portage.aspx?portid=42025"><text>More info on Paddle Planner.com</text></link><sym>Trail Head</sym><type>Portage</type></wpt><wpt lat="46.09433" lon="-81.56247"><name>42026</name><desc>Killarney Portage 42026, ~79 meters (16 rods)</desc><link href="https://www.paddleplanner.com/tools/portage.aspx?portid=42026"><text>More info on Paddle Planner.com</text></link><sym>Trail Head</sym><type>Portage</type></wpt><wpt lat="46.09434" lon="-81.56146"><name>42026</name><desc>Killarney Portage 42026, ~79 meters (16 rods)</desc><link href="https://www.paddleplanner.com/tools/portage.aspx?portid=42026"><text>More info on Paddle Planner.com</text></link><sym>Trail Head</sym><type>Portage</type></wpt><wpt lat="46.1067" lon="-81.5622"><name>42027</name><desc>Killarney Portage 42027, ~125 meters (25 rods)</desc><link href="https://www.paddleplanner.com/tools/portage.aspx?portid=42027"><text>More info on Paddle Planner.com</text></link><sym>Trail Head</sym><type>Portage</type></wpt><wpt lat="46.10657" lon="-81.56062"><name>42027</name><desc>Killarney Portage 42027, ~125 meters (25 rods)</desc><link href="https://www.paddleplanner.com/tools/portage.aspx?portid=42027"><text>More info on Paddle Planner.com</text></link><sym>Trail Head</sym><type>Portage</type></wpt><wpt lat="46.10972" lon="-81.57913"><name>42028</name><desc>Killarney Portage 42028, ~189 meters (38 rods)</desc><link href="https://www.paddleplanner.com/tools/portage.aspx?portid=42028"><text>More info on Paddle Planner.com</text></link><sym>Trail Head</sym><type>Portage</type></wpt><wpt lat="46.10985" lon="-81.57712"><name>42028</name><desc>Killarney Portage 42028, ~189 meters (38 rods)</desc><link href="https://www.paddleplanner.com/tools/portage.aspx?portid=42028"><text>More info on Paddle Planner.com</text></link><sym>Trail Head</sym><type>Portage</type></wpt><wpt lat="46.15152" lon="-81.51057"><name>42029</name><desc>Killarney Portage 42029, ~986 meters (196 rods)</desc><link href="https://www.paddleplanner.com/tools/portage.aspx?portid=42029"><text>More info on Paddle Planner.com</text></link><sym>Trail Head</sym><type>Portage</type></wpt><wpt lat="46.15295" lon="-81.49887"><name>42029</name><desc>Killarney Portage 42029, ~986 meters (196 rods)</desc><link href="https://www.paddleplanner.com/tools/portage.aspx?portid=42029"><text>More info on Paddle Planner.com</text></link><sym>Trail Head</sym><type>Portage</type></wpt><wpt lat="46.1614" lon="-81.47725"><name>42030</name><desc>Killarney Portage 42030, ~763 meters (152 rods)</desc><link href="https://www.paddleplanner.com/tools/portage.aspx?portid=42030"><text>More info on Paddle Planner.com</text></link><sym>Trail Head</sym><type>Portage</type></wpt><wpt lat="46.15513" lon="-81.47398"><name>42030</name><desc>Killarney Portage 42030, ~763 meters (152 rods)</desc><link href="https://www.paddleplanner.com/tools/portage.aspx?portid=42030"><text>More info on Paddle Planner.com</text></link><sym>Trail Head</sym><type>Portage</type></wpt><wpt lat="46.15785" lon="-81.44663"><name>42031</name><desc>Killarney Portage 42031, ~227 meters (45 rods)</desc><link href="https://www.paddleplanner.com/tools/portage.aspx?portid=42031"><text>More info on Paddle Planner.com</text></link><sym>Trail Head</sym><type>Portage</type></wpt><wpt lat="46.15852" lon="-81.44399"><name>42031</name><desc>Killarney Portage 42031, ~227 meters (45 rods)</desc><link href="https://www.paddleplanner.com/tools/portage.aspx?portid=42031"><text>More info on Paddle Planner.com</text></link><sym>Trail Head</sym><type>Portage</type></wpt><wpt lat="46.20804" lon="-81.3823"><name>42032</name><desc>Killarney Portage 42032, ~2155 meters (428 rods)</desc><link href="https://www.paddleplanner.com/tools/portage.aspx?portid=42032"><text>More info on Paddle Planner.com</text></link><sym>Trail Head</sym><type>Portage</type></wpt><wpt lat="46.21352" lon="-81.35915"><name>42032</name><desc>Killarney Portage 42032, ~2155 meters (428 rods)</desc><link href="https://www.paddleplanner.com/tools/portage.aspx?portid=42032"><text>More info on Paddle Planner.com</text></link><sym>Trail Head</sym><type>Portage</type></wpt><wpt lat="46.16086" lon="-81.54495"><name>42033</name><desc>Killarney Portage 42033, ~143 meters (28 rods)</desc><link href="https://www.paddleplanner.com/tools/portage.aspx?portid=42033"><text>More info on Paddle Planner.com</text></link><sym>Trail Head</sym><type>Portage</type></wpt><wpt lat="46.15978" lon="-81.54401"><name>42033</name><desc>Killarney Portage 42033, ~143 meters (28 rods)</desc><link href="https://www.paddleplanner.com/tools/portage.aspx?portid=42033"><text>More info on Paddle Planner.com</text></link><sym>Trail Head</sym><type>Portage</type></wpt><wpt lat="46.14864" lon="-81.56046"><name>42034</name><desc>Killarney Portage 42034, ~1032 meters (205 rods)</desc><link href="https://www.paddleplanner.com/tools/portage.aspx?portid=42034"><text>More info on Paddle Planner.com</text></link><sym>Trail Head</sym><type>Portage</type></wpt><wpt lat="46.15478" lon="-81.55363"><name>42034</name><desc>Killarney Portage 42034, ~1032 meters (205 rods)</desc><link href="https://www.paddleplanner.com/tools/portage.aspx?portid=42034"><text>More info on Paddle Planner.com</text></link><sym>Trail Head</sym><type>Portage</type></wpt><wpt lat="46.16298" lon="-81.54356"><name>42035</name><desc>Killarney Portage 42035, ~382 meters (76 rods)</desc><link href="https://www.paddleplanner.com/tools/portage.aspx?portid=42035"><text>More info on Paddle Planner.com</text></link><sym>Trail Head</sym><type>Portage</type></wpt><wpt lat="46.16582" lon="-81.54454"><name>42035</name><desc>Killarney Portage 42035, ~382 meters (76 rods)</desc><link href="https://www.paddleplanner.com/tools/portage.aspx?portid=42035"><text>More info on Paddle Planner.com</text></link><sym>Trail Head</sym><type>Portage</type></wpt><wpt lat="46.16786" lon="-81.4811"><name>42036</name><desc>Killarney Portage 42036, ~472 meters (94 rods)</desc><link href="https://www.paddleplanner.com/tools/portage.aspx?portid=42036"><text>More info on Paddle Planner.com</text></link><sym>Trail Head</sym><type>Portage</type></wpt><wpt lat="46.16402" lon="-81.48052"><name>42036</name><desc>Killarney Portage 42036, ~472 meters (94 rods)</desc><link href="https://www.paddleplanner.com/tools/portage.aspx?portid=42036"><text>More info on Paddle Planner.com</text></link><sym>Trail Head</sym><type>Portage</type></wpt><wpt lat="46.16875" lon="-81.47943"><name>42037</name><desc>Killarney Portage 42037, ~600 meters (119 rods)</desc><link href="https://www.paddleplanner.com/tools/portage.aspx?portid=42037"><text>More info on Paddle Planner.com</text></link><sym>Trail Head</sym><type>Portage</type></wpt><wpt lat="46.16861" lon="-81.47285"><name>42037</name><desc>Killarney Portage 42037, ~600 meters (119 rods)</desc><link href="https://www.paddleplanner.com/tools/portage.aspx?portid=42037"><text>More info on Paddle Planner.com</text></link><sym>Trail Head</sym><type>Portage</type></wpt><wpt lat="46.17224" lon="-81.48458"><name>42038</name><desc>Killarney Portage 42038, ~185 meters (37 rods)</desc><link href="https://www.paddleplanner.com/tools/portage.aspx?portid=42038"><text>More info on Paddle Planner.com</text></link><sym>Trail Head</sym><type>Portage</type></wpt><wpt lat="46.17084" lon="-81.48573"><name>42038</name><desc>Killarney Portage 42038, ~185 meters (37 rods)</desc><link href="https://www.paddleplanner.com/tools/portage.aspx?portid=42038"><text>More info on Paddle Planner.com</text></link><sym>Trail Head</sym><type>Portage</type></wpt><wpt lat="46.17047" lon="-81.46204"><name>42039</name><desc>Killarney Portage 42039, ~140 meters (28 rods)</desc><link href="https://www.paddleplanner.com/tools/portage.aspx?portid=42039"><text>More info on Paddle Planner.com</text></link><sym>Trail Head</sym><type>Portage</type></wpt><wpt lat="46.17074" lon="-81.46032"><name>42039</name><desc>Killarney Portage 42039, ~140 meters (28 rods)</desc><link href="https://www.paddleplanner.com/tools/portage.aspx?portid=42039"><text>More info on Paddle Planner.com</text></link><sym>Trail Head</sym><type>Portage</type></wpt><wpt lat="46.17105" lon="-81.44918"><name>42040</name><desc>Killarney Portage 42040, ~107 meters (21 rods)</desc><link href="https://www.paddleplanner.com/tools/portage.aspx?portid=42040"><text>More info on Paddle Planner.com</text></link><sym>Trail Head</sym><type>Portage</type></wpt><wpt lat="46.17147" lon="-81.44796"><name>42040</name><desc>Killarney Portage 42040, ~107 meters (21 rods)</desc><link href="https://www.paddleplanner.com/tools/portage.aspx?portid=42040"><text>More info on Paddle Planner.com</text></link><sym>Trail Head</sym><type>Portage</type></wpt><wpt lat="46.17633" lon="-81.4381"><name>42041</name><desc>Killarney Portage 42041, ~236 meters (47 rods)</desc><link href="https://www.paddleplanner.com/tools/portage.aspx?portid=42041"><text>More info on Paddle Planner.com</text></link><sym>Trail Head</sym><type>Portage</type></wpt><wpt lat="46.17836" lon="-81.43736"><name>42041</name><desc>Killarney Portage 42041, ~236 meters (47 rods)</desc><link href="https://www.paddleplanner.com/tools/portage.aspx?portid=42041"><text>More info on Paddle Planner.com</text></link><sym>Trail Head</sym><type>Portage</type></wpt><wpt lat="46.18099" lon="-81.42757"><name>42042</name><desc>Killarney Portage 42042, ~279 meters (56 rods)</desc><link href="https://www.paddleplanner.com/tools/portage.aspx?portid=42042"><text>More info on Paddle Planner.com</text></link><sym>Trail Head</sym><type>Portage</type></wpt><wpt lat="46.18006" lon="-81.42451"><name>42042</name><desc>Killarney Portage 42042, ~279 meters (56 rods)</desc><link href="https://www.paddleplanner.com/tools/portage.aspx?portid=42042"><text>More info on Paddle Planner.com</text></link><sym>Trail Head</sym><type>Portage</type></wpt><wpt lat="46.16447" lon="-81.42352"><name>42043</name><desc>Killarney Portage 42043, ~199 meters (40 rods)</desc><link href="https://www.paddleplanner.com/tools/portage.aspx?portid=42043"><text>More info on Paddle Planner.com</text></link><sym>Trail Head</sym><type>Portage</type></wpt><wpt lat="46.16365" lon="-81.4218"><name>42043</name><desc>Killarney Portage 42043, ~199 meters (40 rods)</desc><link href="https://www.paddleplanner.com/tools/portage.aspx?portid=42043"><text>More info on Paddle Planner.com</text></link><sym>Trail Head</sym><type>Portage</type></wpt><wpt lat="46.16701" lon="-81.40286"><name>42044</name><desc>Killarney Portage 42044, ~268 meters (53 rods)</desc><link href="https://www.paddleplanner.com/tools/portage.aspx?portid=42044"><text>More info on Paddle Planner.com</text></link><sym>Trail Head</sym><type>Portage</type></wpt><wpt lat="46.16917" lon="-81.4021"><name>42044</name><desc>Killarney Portage 42044, ~268 meters (53 rods)</desc><link href="https://www.paddleplanner.com/tools/portage.aspx?portid=42044"><text>More info on Paddle Planner.com</text></link><sym>Trail Head</sym><type>Portage</type></wpt><wpt lat="46.17221" lon="-81.40318"><name>42045</name><desc>Killarney Portage 42045, ~108 meters (22 rods)</desc><link href="https://www.paddleplanner.com/tools/portage.aspx?portid=42045"><text>More info on Paddle Planner.com</text></link><sym>Trail Head</sym><type>Portage</type></wpt><wpt lat="46.17126" lon="-81.40288"><name>42045</name><desc>Killarney Portage 42045, ~108 meters (22 rods)</desc><link href="https://www.paddleplanner.com/tools/portage.aspx?portid=42045"><text>More info on Paddle Planner.com</text></link><sym>Trail Head</sym><type>Portage</type></wpt><wpt lat="46.17824" lon="-81.41446"><name>42046</name><desc>Killarney Portage 42046, ~504 meters (100 rods)</desc><link href="https://www.paddleplanner.com/tools/portage.aspx?portid=42046"><text>More info on Paddle Planner.com</text></link><sym>Trail Head</sym><type>Portage</type></wpt><wpt lat="46.17752" lon="-81.40815"><name>42046</name><desc>Killarney Portage 42046, ~504 meters (100 rods)</desc><link href="https://www.paddleplanner.com/tools/portage.aspx?portid=42046"><text>More info on Paddle Planner.com</text></link><sym>Trail Head</sym><type>Portage</type></wpt><wpt lat="46.20687" lon="-81.5103"><name>42047</name><desc>Killarney Portage 42047, ~174 meters (35 rods)</desc><link href="https://www.paddleplanner.com/tools/portage.aspx?portid=42047"><text>More info on Paddle Planner.com</text></link><sym>Trail Head</sym><type>Portage</type></wpt><wpt lat="46.20557" lon="-81.50933"><name>42047</name><desc>Killarney Portage 42047, ~174 meters (35 rods)</desc><link href="https://www.paddleplanner.com/tools/portage.aspx?portid=42047"><text>More info on Paddle Planner.com</text></link><sym>Trail Head</sym><type>Portage</type></wpt><wpt lat="46.21705" lon="-81.48804"><name>42048</name><desc>Killarney Portage 42048, ~119 meters (24 rods)</desc><link href="https://www.paddleplanner.com/tools/portage.aspx?portid=42048"><text>More info on Paddle Planner.com</text></link><sym>Trail Head</sym><type>Portage</type></wpt><wpt lat="46.21663" lon="-81.48668"><name>42048</name><desc>Killarney Portage 42048, ~119 meters (24 rods)</desc><link href="https://www.paddleplanner.com/tools/portage.aspx?portid=42048"><text>More info on Paddle Planner.com</text></link><sym>Trail Head</sym><type>Portage</type></wpt><wpt lat="46.19631" lon="-81.40897"><name>42049</name><desc>Killarney Portage 42049, ~486 meters (97 rods)</desc><link href="https://www.paddleplanner.com/tools/portage.aspx?portid=42049"><text>More info on Paddle Planner.com</text></link><sym>Trail Head</sym><type>Portage</type></wpt><wpt lat="46.20034" lon="-81.40948"><name>42049</name><desc>Killarney Portage 42049, ~486 meters (97 rods)</desc><link href="https://www.paddleplanner.com/tools/portage.aspx?portid=42049"><text>More info on Paddle Planner.com</text></link><sym>Trail Head</sym><type>Portage</type></wpt><wpt lat="46.20349" lon="-81.40995"><name>42050</name><desc>Killarney Portage 42050, ~267 meters (53 rods)</desc><link href="https://www.paddleplanner.com/tools/portage.aspx?portid=42050"><text>More info on Paddle Planner.com</text></link><sym>Trail Head</sym><type>Portage</type></wpt><wpt lat="46.20128" lon="-81.41106"><name>42050</name><desc>Killarney Portage 42050, ~267 meters (53 rods)</desc><link href="https://www.paddleplanner.com/tools/portage.aspx?portid=42050"><text>More info on Paddle Planner.com</text></link><sym>Trail Head</sym><type>Portage</type></wpt><wpt lat="46.20901" lon="-81.40855"><name>42051</name><desc>Killarney Portage 42051, ~217 meters (43 rods)</desc><link href="https://www.paddleplanner.com/tools/portage.aspx?portid=42051"><text>More info on Paddle Planner.com</text></link><sym>Trail Head</sym><type>Portage</type></wpt><wpt lat="46.20726" lon="-81.40868"><name>42051</name><desc>Killarney Portage 42051, ~217 meters (43 rods)</desc><link href="https://www.paddleplanner.com/tools/portage.aspx?portid=42051"><text>More info on Paddle Planner.com</text></link><sym>Trail Head</sym><type>Portage</type></wpt><wpt lat="46.24261" lon="-81.3668"><name>42052</name><desc>Killarney Portage 42052, ~279 meters (56 rods)</desc><link href="https://www.paddleplanner.com/tools/portage.aspx?portid=42052"><text>More info on Paddle Planner.com</text></link><sym>Trail Head</sym><type>Portage</type></wpt><wpt lat="46.24482" lon="-81.36769"><name>42052</name><desc>Killarney Portage 42052, ~279 meters (56 rods)</desc><link href="https://www.paddleplanner.com/tools/portage.aspx?portid=42052"><text>More info on Paddle Planner.com</text></link><sym>Trail Head</sym><type>Portage</type></wpt><wpt lat="46.14748" lon="-81.35729"><name>42053</name><desc>Killarney Portage 42053, ~67 meters (13 rods)</desc><link href="https://www.paddleplanner.com/tools/portage.aspx?portid=42053"><text>More info on Paddle Planner.com</text></link><sym>Trail Head</sym><type>Portage</type></wpt><wpt lat="46.14697" lon="-81.35776"><name>42053</name><desc>Killarney Portage 42053, ~67 meters (13 rods)</desc><link href="https://www.paddleplanner.com/tools/portage.aspx?portid=42053"><text>More info on Paddle Planner.com</text></link><sym>Trail Head</sym><type>Portage</type></wpt><wpt lat="46.13505" lon="-81.18202"><name>42054</name><desc>Killarney Portage 42054, ~575 meters (114 rods)</desc><link href="https://www.paddleplanner.com/tools/portage.aspx?portid=42054"><text>More info on Paddle Planner.com</text></link><sym>Trail Head</sym><type>Portage</type></wpt><wpt lat="46.13601" lon="-81.18837"><name>42054</name><desc>Killarney Portage 42054, ~575 meters (114 rods)</desc><link href="https://www.paddleplanner.com/tools/portage.aspx?portid=42054"><text>More info on Paddle Planner.com</text></link><sym>Trail Head</sym><type>Portage</type></wpt><wpt lat="46.12904" lon="-81.27035"><name>42055</name><desc>Killarney Portage 42055, ~180 meters (36 rods)</desc><link href="https://www.paddleplanner.com/tools/portage.aspx?portid=42055"><text>More info on Paddle Planner.com</text></link><sym>Trail Head</sym><type>Portage</type></wpt><wpt lat="46.12793" lon="-81.26868"><name>42055</name><desc>Killarney Portage 42055, ~180 meters (36 rods)</desc><link href="https://www.paddleplanner.com/tools/portage.aspx?portid=42055"><text>More info on Paddle Planner.com</text></link><sym>Trail Head</sym><type>Portage</type></wpt><wpt lat="46.03524" lon="-81.38126"><name>42056</name><desc>Killarney Portage 42056, ~58 meters (11 rods)</desc><link href="https://www.paddleplanner.com/tools/portage.aspx?portid=42056"><text>More info on Paddle Planner.com</text></link><sym>Trail Head</sym><type>Portage</type></wpt><wpt lat="46.03535" lon="-81.38053"><name>42056</name><desc>Killarney Portage 42056, ~58 meters (11 rods)</desc><link href="https://www.paddleplanner.com/tools/portage.aspx?portid=42056"><text>More info on Paddle Planner.com</text></link><sym>Trail Head</sym><type>Portage</type></wpt><wpt lat="46.04566" lon="-81.35624"><name>42057</name><desc>Killarney Portage 42057, ~414 meters (82 rods)</desc><link href="https://www.paddleplanner.com/tools/portage.aspx?portid=42057"><text>More info on Paddle Planner.com</text></link><sym>Trail Head</sym><type>Portage</type></wpt><wpt lat="46.04218" lon="-81.35639"><name>42057</name><desc>Killarney Portage 42057, ~414 meters (82 rods)</desc><link href="https://www.paddleplanner.com/tools/portage.aspx?portid=42057"><text>More info on Paddle Planner.com</text></link><sym>Trail Head</sym><type>Portage</type></wpt><wpt lat="46.05966" lon="-81.37856"><name>42058</name><desc>Killarney Portage 42058, ~437 meters (87 rods)</desc><link href="https://www.paddleplanner.com/tools/portage.aspx?portid=42058"><text>More info on Paddle Planner.com</text></link><sym>Trail Head</sym><type>Portage</type></wpt><wpt lat="46.05802" lon="-81.38371"><name>42058</name><desc>Killarney Portage 42058, ~437 meters (87 rods)</desc><link href="https://www.paddleplanner.com/tools/portage.aspx?portid=42058"><text>More info on Paddle Planner.com</text></link><sym>Trail Head</sym><type>Portage</type></wpt><wpt lat="46.05485" lon="-81.38175"><name>42059</name><desc>Killarney Portage 42059, ~115 meters (23 rods)</desc><link href="https://www.paddleplanner.com/tools/portage.aspx?portid=42059"><text>More info on Paddle Planner.com</text></link><sym>Trail Head</sym><type>Portage</type></wpt><wpt lat="46.05521" lon="-81.38315"><name>42059</name><desc>Killarney Portage 42059, ~115 meters (23 rods)</desc><link href="https://www.paddleplanner.com/tools/portage.aspx?portid=42059"><text>More info on Paddle Planner.com</text></link><sym>Trail Head</sym><type>Portage</type></wpt><wpt lat="46.09424" lon="-81.3883"><name>42060</name><desc>Killarney Portage 42060, ~368 meters (73 rods)</desc><link href="https://www.paddleplanner.com/tools/portage.aspx?portid=42060"><text>More info on Paddle Planner.com</text></link><sym>Trail Head</sym><type>Portage</type></wpt><wpt lat="46.09252" lon="-81.38483"><name>42060</name><desc>Killarney Portage 42060, ~368 meters (73 rods)</desc><link href="https://www.paddleplanner.com/tools/portage.aspx?portid=42060"><text>More info on Paddle Planner.com</text></link><sym>Trail Head</sym><type>Portage</type></wpt><wpt lat="46.11699" lon="-81.37797"><name>42061</name><desc>Killarney Portage 42061, ~654 meters (130 rods)</desc><link href="https://www.paddleplanner.com/tools/portage.aspx?portid=42061"><text>More info on Paddle Planner.com</text></link><sym>Trail Head</sym><type>Portage</type></wpt><wpt lat="46.11727" lon="-81.38581"><name>42061</name><desc>Killarney Portage 42061, ~654 meters (130 rods)</desc><link href="https://www.paddleplanner.com/tools/portage.aspx?portid=42061"><text>More info on Paddle Planner.com</text></link><sym>Trail Head</sym><type>Portage</type></wpt><wpt lat="46.11852" lon="-81.37848"><name>42062</name><desc>Killarney Portage 42062, ~176 meters (35 rods)</desc><link href="https://www.paddleplanner.com/tools/portage.aspx?portid=42062"><text>More info on Paddle Planner.com</text></link><sym>Trail Head</sym><type>Portage</type></wpt><wpt lat="46.11699" lon="-81.37797"><name>42062</name><desc>Killarney Portage 42062, ~176 meters (35 rods)</desc><link href="https://www.paddleplanner.com/tools/portage.aspx?portid=42062"><text>More info on Paddle Planner.com</text></link><sym>Trail Head</sym><type>Portage</type></wpt><wpt lat="46.12125" lon="-81.37727"><name>42063</name><desc>Killarney Portage 42063, ~80 meters (16 rods)</desc><link href="https://www.paddleplanner.com/tools/portage.aspx?portid=42063"><text>More info on Paddle Planner.com</text></link><sym>Trail Head</sym><type>Portage</type></wpt><wpt lat="46.1208" lon="-81.37659"><name>42063</name><desc>Killarney Portage 42063, ~80 meters (16 rods)</desc><link href="https://www.paddleplanner.com/tools/portage.aspx?portid=42063"><text>More info on Paddle Planner.com</text></link><sym>Trail Head</sym><type>Portage</type></wpt><wpt lat="46.12299" lon="-81.37316"><name>42064</name><desc>Killarney Portage 42064, ~98 meters (20 rods)</desc><link href="https://www.paddleplanner.com/tools/portage.aspx?portid=42064"><text>More info on Paddle Planner.com</text></link><sym>Trail Head</sym><type>Portage</type></wpt><wpt lat="46.12211" lon="-81.37302"><name>42064</name><desc>Killarney Portage 42064, ~98 meters (20 rods)</desc><link href="https://www.paddleplanner.com/tools/portage.aspx?portid=42064"><text>More info on Paddle Planner.com</text></link><sym>Trail Head</sym><type>Portage</type></wpt><wpt lat="46.12648" lon="-81.37358"><name>42065</name><desc>Killarney Portage 42065, ~69 meters (14 rods)</desc><link href="https://www.paddleplanner.com/tools/portage.aspx?portid=42065"><text>More info on Paddle Planner.com</text></link><sym>Trail Head</sym><type>Portage</type></wpt><wpt lat="46.12608" lon="-81.37424"><name>42065</name><desc>Killarney Portage 42065, ~69 meters (14 rods)</desc><link href="https://www.paddleplanner.com/tools/portage.aspx?portid=42065"><text>More info on Paddle Planner.com</text></link><sym>Trail Head</sym><type>Portage</type></wpt><wpt lat="46.13492" lon="-81.36887"><name>42066</name><desc>Killarney Portage 42066, ~771 meters (153 rods)</desc><link href="https://www.paddleplanner.com/tools/portage.aspx?portid=42066"><text>More info on Paddle Planner.com</text></link><sym>Trail Head</sym><type>Portage</type></wpt><wpt lat="46.12824" lon="-81.37153"><name>42066</name><desc>Killarney Portage 42066, ~771 meters (153 rods)</desc><link href="https://www.paddleplanner.com/tools/portage.aspx?portid=42066"><text>More info on Paddle Planner.com</text></link><sym>Trail Head</sym><type>Portage</type></wpt><wpt lat="46.14213" lon="-81.36591"><name>42067</name><desc>Killarney Portage 42067, ~801 meters (159 rods)</desc><link href="https://www.paddleplanner.com/tools/portage.aspx?portid=42067"><text>More info on Paddle Planner.com</text></link><sym>Trail Head</sym><type>Portage</type></wpt><wpt lat="46.1352" lon="-81.36866"><name>42067</name><desc>Killarney Portage 42067, ~801 meters (159 rods)</desc><link href="https://www.paddleplanner.com/tools/portage.aspx?portid=42067"><text>More info on Paddle Planner.com</text></link><sym>Trail Head</sym><type>Portage</type></wpt><wpt lat="46.11608" lon="-81.4177"><name>42068</name><desc>Killarney Portage 42068, ~688 meters (137 rods)</desc><link href="https://www.paddleplanner.com/tools/portage.aspx?portid=42068"><text>More info on Paddle Planner.com</text></link><sym>Trail Head</sym><type>Portage</type></wpt><wpt lat="46.11703" lon="-81.40935"><name>42068</name><desc>Killarney Portage 42068, ~688 meters (137 rods)</desc><link href="https://www.paddleplanner.com/tools/portage.aspx?portid=42068"><text>More info on Paddle Planner.com</text></link><sym>Trail Head</sym><type>Portage</type></wpt><wpt lat="46.06286" lon="-81.52495"><name>42069</name><desc>Killarney Portage 42069, ~76 meters (15 rods)</desc><link href="https://www.paddleplanner.com/tools/portage.aspx?portid=42069"><text>More info on Paddle Planner.com</text></link><sym>Trail Head</sym><type>Portage</type></wpt><wpt lat="46.06255" lon="-81.52407"><name>42069</name><desc>Killarney Portage 42069, ~76 meters (15 rods)</desc><link href="https://www.paddleplanner.com/tools/portage.aspx?portid=42069"><text>More info on Paddle Planner.com</text></link><sym>Trail Head</sym><type>Portage</type></wpt><wpt lat="46.06274" lon="-81.51034"><name>42070</name><desc>Killarney Portage 42070, ~35 meters (7 rods)</desc><link href="https://www.paddleplanner.com/tools/portage.aspx?portid=42070"><text>More info on Paddle Planner.com</text></link><sym>Trail Head</sym><type>Portage</type></wpt><wpt lat="46.0629" lon="-81.50998"><name>42070</name><desc>Killarney Portage 42070, ~35 meters (7 rods)</desc><link href="https://www.paddleplanner.com/tools/portage.aspx?portid=42070"><text>More info on Paddle Planner.com</text></link><sym>Trail Head</sym><type>Portage</type></wpt><wpt lat="46.06782" lon="-81.49971"><name>42071</name><desc>Killarney Portage 42071, ~202 meters (40 rods)</desc><link href="https://www.paddleplanner.com/tools/portage.aspx?portid=42071"><text>More info on Paddle Planner.com</text></link><sym>Trail Head</sym><type>Portage</type></wpt><wpt lat="46.06724" lon="-81.49784"><name>42071</name><desc>Killarney Portage 42071, ~202 meters (40 rods)</desc><link href="https://www.paddleplanner.com/tools/portage.aspx?portid=42071"><text>More info on Paddle Planner.com</text></link><sym>Trail Head</sym><type>Portage</type></wpt><wpt lat="46.06673" lon="-81.49756"><name>42072</name><desc>Killarney Portage 42072, ~183 meters (36 rods)</desc><link href="https://www.paddleplanner.com/tools/portage.aspx?portid=42072"><text>More info on Paddle Planner.com</text></link><sym>Trail Head</sym><type>Portage</type></wpt><wpt lat="46.06659" lon="-81.49627"><name>42072</name><desc>Killarney Portage 42072, ~183 meters (36 rods)</desc><link href="https://www.paddleplanner.com/tools/portage.aspx?portid=42072"><text>More info on Paddle Planner.com</text></link><sym>Trail Head</sym><type>Portage</type></wpt><wpt lat="46.06503" lon="-81.49367"><name>42073</name><desc>Killarney Portage 42073, ~151 meters (30 rods)</desc><link href="https://www.paddleplanner.com/tools/portage.aspx?portid=42073"><text>More info on Paddle Planner.com</text></link><sym>Trail Head</sym><type>Portage</type></wpt><wpt lat="46.06514" lon="-81.4922"><name>42073</name><desc>Killarney Portage 42073, ~151 meters (30 rods)</desc><link href="https://www.paddleplanner.com/tools/portage.aspx?portid=42073"><text>More info on Paddle Planner.com</text></link><sym>Trail Head</sym><type>Portage</type></wpt><wpt lat="46.06333" lon="-81.48941"><name>42074</name><desc>Killarney Portage 42074, ~24 meters (5 rods)</desc><link href="https://www.paddleplanner.com/tools/portage.aspx?portid=42074"><text>More info on Paddle Planner.com</text></link><sym>Trail Head</sym><type>Portage</type></wpt><wpt lat="46.06354" lon="-81.48932"><name>42074</name><desc>Killarney Portage 42074, ~24 meters (5 rods)</desc><link href="https://www.paddleplanner.com/tools/portage.aspx?portid=42074"><text>More info on Paddle Planner.com</text></link><sym>Trail Head</sym><type>Portage</type></wpt><wpt lat="46.06389" lon="-81.4811"><name>42075</name><desc>Killarney Portage 42075, ~52 meters (10 rods)</desc><link href="https://www.paddleplanner.com/tools/portage.aspx?portid=42075"><text>More info on Paddle Planner.com</text></link><sym>Trail Head</sym><type>Portage</type></wpt><wpt lat="46.06415" lon="-81.4806"><name>42075</name><desc>Killarney Portage 42075, ~52 meters (10 rods)</desc><link href="https://www.paddleplanner.com/tools/portage.aspx?portid=42075"><text>More info on Paddle Planner.com</text></link><sym>Trail Head</sym><type>Portage</type></wpt><wpt lat="46.0504" lon="-81.47697"><name>42076</name><desc>Killarney Portage 42076, ~353 meters (70 rods)</desc><link href="https://www.paddleplanner.com/tools/portage.aspx?portid=42076"><text>More info on Paddle Planner.com</text></link><sym>Trail Head</sym><type>Portage</type></wpt><wpt lat="46.05329" lon="-81.47512"><name>42076</name><desc>Killarney Portage 42076, ~353 meters (70 rods)</desc><link href="https://www.paddleplanner.com/tools/portage.aspx?portid=42076"><text>More info on Paddle Planner.com</text></link><sym>Trail Head</sym><type>Portage</type></wpt><wpt lat="46.05329" lon="-81.47512"><name>42077</name><desc>Killarney Portage 42077, ~577 meters (115 rods)</desc><link href="https://www.paddleplanner.com/tools/portage.aspx?portid=42077"><text>More info on Paddle Planner.com</text></link><sym>Trail Head</sym><type>Portage</type></wpt><wpt lat="46.05255" lon="-81.46854"><name>42077</name><desc>Killarney Portage 42077, ~577 meters (115 rods)</desc><link href="https://www.paddleplanner.com/tools/portage.aspx?portid=42077"><text>More info on Paddle Planner.com</text></link><sym>Trail Head</sym><type>Portage</type></wpt><wpt lat="46.04937" lon="-81.46999"><name>42078</name><desc>Killarney Portage 42078, ~266 meters (53 rods)</desc><link href="https://www.paddleplanner.com/tools/portage.aspx?portid=42078"><text>More info on Paddle Planner.com</text></link><sym>Trail Head</sym><type>Portage</type></wpt><wpt lat="46.04792" lon="-81.47244"><name>42078</name><desc>Killarney Portage 42078, ~266 meters (53 rods)</desc><link href="https://www.paddleplanner.com/tools/portage.aspx?portid=42078"><text>More info on Paddle Planner.com</text></link><sym>Trail Head</sym><type>Portage</type></wpt><wpt lat="46.05642" lon="-81.42859"><name>42079</name><desc>Killarney Portage 42079, ~303 meters (60 rods)</desc><link href="https://www.paddleplanner.com/tools/portage.aspx?portid=42079"><text>More info on Paddle Planner.com</text></link><sym>Trail Head</sym><type>Portage</type></wpt><wpt lat="46.05422" lon="-81.42782"><name>42079</name><desc>Killarney Portage 42079, ~303 meters (60 rods)</desc><link href="https://www.paddleplanner.com/tools/portage.aspx?portid=42079"><text>More info on Paddle Planner.com</text></link><sym>Trail Head</sym><type>Portage</type></wpt><wpt lat="46.12505" lon="-81.25534"><name>42080</name><desc>Killarney Portage 42080, ~752 meters (150 rods)</desc><link href="https://www.paddleplanner.com/tools/portage.aspx?portid=42080"><text>More info on Paddle Planner.com</text></link><sym>Trail Head</sym><type>Portage</type></wpt><wpt lat="46.12319" lon="-81.24712"><name>42080</name><desc>Killarney Portage 42080, ~752 meters (150 rods)</desc><link href="https://www.paddleplanner.com/tools/portage.aspx?portid=42080"><text>More info on Paddle Planner.com</text></link><sym>Trail Head</sym><type>Portage</type></wpt><wpt lat="46.12277" lon="-81.24208"><name>42081</name><desc>Killarney Portage 42081, ~157 meters (31 rods)</desc><link href="https://www.paddleplanner.com/tools/portage.aspx?portid=42081"><text>More info on Paddle Planner.com</text></link><sym>Trail Head</sym><type>Portage</type></wpt><wpt lat="46.12174" lon="-81.24077"><name>42081</name><desc>Killarney Portage 42081, ~157 meters (31 rods)</desc><link href="https://www.paddleplanner.com/tools/portage.aspx?portid=42081"><text>More info on Paddle Planner.com</text></link><sym>Trail Head</sym><type>Portage</type></wpt><wpt lat="46.12266" lon="-81.26421"><name>42082</name><desc>Killarney Portage 42082, ~832 meters (165 rods)</desc><link href="https://www.paddleplanner.com/tools/portage.aspx?portid=42082"><text>More info on Paddle Planner.com</text></link><sym>Trail Head</sym><type>Portage</type></wpt><wpt lat="46.12795" lon="-81.27048"><name>42082</name><desc>Killarney Portage 42082, ~832 meters (165 rods)</desc><link href="https://www.paddleplanner.com/tools/portage.aspx?portid=42082"><text>More info on Paddle Planner.com</text></link><sym>Trail Head</sym><type>Portage</type></wpt><wpt lat="46.11466" lon="-81.24965"><name>42083</name><desc>Killarney Portage 42083, ~764 meters (152 rods)</desc><link href="https://www.paddleplanner.com/tools/portage.aspx?portid=42083"><text>More info on Paddle Planner.com</text></link><sym>Trail Head</sym><type>Portage</type></wpt><wpt lat="46.11086" lon="-81.24155"><name>42083</name><desc>Killarney Portage 42083, ~764 meters (152 rods)</desc><link href="https://www.paddleplanner.com/tools/portage.aspx?portid=42083"><text>More info on Paddle Planner.com</text></link><sym>Trail Head</sym><type>Portage</type></wpt><wpt lat="46.11202" lon="-81.19664"><name>42084</name><desc>Killarney Portage 42084, ~193 meters (38 rods)</desc><link href="https://www.paddleplanner.com/tools/portage.aspx?portid=42084"><text>More info on Paddle Planner.com</text></link><sym>Trail Head</sym><type>Portage</type></wpt><wpt lat="46.11223" lon="-81.19443"><name>42084</name><desc>Killarney Portage 42084, ~193 meters (38 rods)</desc><link href="https://www.paddleplanner.com/tools/portage.aspx?portid=42084"><text>More info on Paddle Planner.com</text></link><sym>Trail Head</sym><type>Portage</type></wpt><wpt lat="46.09437" lon="-81.24285"><name>42085</name><desc>Killarney Portage 42085, ~77 meters (15 rods)</desc><link href="https://www.paddleplanner.com/tools/portage.aspx?portid=42085"><text>More info on Paddle Planner.com</text></link><sym>Trail Head</sym><type>Portage</type></wpt><wpt lat="46.09425" lon="-81.24187"><name>42085</name><desc>Killarney Portage 42085, ~77 meters (15 rods)</desc><link href="https://www.paddleplanner.com/tools/portage.aspx?portid=42085"><text>More info on Paddle Planner.com</text></link><sym>Trail Head</sym><type>Portage</type></wpt><wpt lat="46.07378" lon="-81.23796"><name>42086</name><desc>Killarney Portage 42086, ~115 meters (23 rods)</desc><link href="https://www.paddleplanner.com/tools/portage.aspx?portid=42086"><text>More info on Paddle Planner.com</text></link><sym>Trail Head</sym><type>Portage</type></wpt><wpt lat="46.07276" lon="-81.23787"><name>42086</name><desc>Killarney Portage 42086, ~115 meters (23 rods)</desc><link href="https://www.paddleplanner.com/tools/portage.aspx?portid=42086"><text>More info on Paddle Planner.com</text></link><sym>Trail Head</sym><type>Portage</type></wpt><wpt lat="46.0938" lon="-81.29524"><name>42087</name><desc>Killarney Portage 42087, ~1102 meters (219 rods)</desc><link href="https://www.paddleplanner.com/tools/portage.aspx?portid=42087"><text>More info on Paddle Planner.com</text></link><sym>Trail Head</sym><type>Portage</type></wpt><wpt lat="46.08742" lon="-81.30215"><name>42087</name><desc>Killarney Portage 42087, ~1102 meters (219 rods)</desc><link href="https://www.paddleplanner.com/tools/portage.aspx?portid=42087"><text>More info on Paddle Planner.com</text></link><sym>Trail Head</sym><type>Portage</type></wpt><wpt lat="46.16057" lon="-81.2594"><name>42088</name><desc>Killarney Portage 42088, ~559 meters (111 rods)</desc><link href="https://www.paddleplanner.com/tools/portage.aspx?portid=42088"><text>More info on Paddle Planner.com</text></link><sym>Trail Head</sym><type>Portage</type></wpt><wpt lat="46.1559" lon="-81.26209"><name>42088</name><desc>Killarney Portage 42088, ~559 meters (111 rods)</desc><link href="https://www.paddleplanner.com/tools/portage.aspx?portid=42088"><text>More info on Paddle Planner.com</text></link><sym>Trail Head</sym><type>Portage</type></wpt><wpt lat="46.16872" lon="-81.24628"><name>42089</name><desc>Killarney Portage 42089, ~382 meters (76 rods)</desc><link href="https://www.paddleplanner.com/tools/portage.aspx?portid=42089"><text>More info on Paddle Planner.com</text></link><sym>Trail Head</sym><type>Portage</type></wpt><wpt lat="46.1714" lon="-81.24929"><name>42089</name><desc>Killarney Portage 42089, ~382 meters (76 rods)</desc><link href="https://www.paddleplanner.com/tools/portage.aspx?portid=42089"><text>More info on Paddle Planner.com</text></link><sym>Trail Head</sym><type>Portage</type></wpt><wpt lat="46.1818" lon="-81.27877"><name>42090</name><desc>Killarney Portage 42090, ~613 meters (122 rods)</desc><link href="https://www.paddleplanner.com/tools/portage.aspx?portid=42090"><text>More info on Paddle Planner.com</text></link><sym>Trail Head</sym><type>Portage</type></wpt><wpt lat="46.17834" lon="-81.27281"><name>42090</name><desc>Killarney Portage 42090, ~613 meters (122 rods)</desc><link href="https://www.paddleplanner.com/tools/portage.aspx?portid=42090"><text>More info on Paddle Planner.com</text></link><sym>Trail Head</sym><type>Portage</type></wpt><wpt lat="46.1885" lon="-81.29213"><name>42091</name><desc>Killarney Portage 42091, ~247 meters (49 rods)</desc><link href="https://www.paddleplanner.com/tools/portage.aspx?portid=42091"><text>More info on Paddle Planner.com</text></link><sym>Trail Head</sym><type>Portage</type></wpt><wpt lat="46.1871" lon="-81.29451"><name>42091</name><desc>Killarney Portage 42091, ~247 meters (49 rods)</desc><link href="https://www.paddleplanner.com/tools/portage.aspx?portid=42091"><text>More info on Paddle Planner.com</text></link><sym>Trail Head</sym><type>Portage</type></wpt><wpt lat="46.19252" lon="-81.28956"><name>42092</name><desc>Killarney Portage 42092, ~473 meters (94 rods)</desc><link href="https://www.paddleplanner.com/tools/portage.aspx?portid=42092"><text>More info on Paddle Planner.com</text></link><sym>Trail Head</sym><type>Portage</type></wpt><wpt lat="46.19656" lon="-81.29044"><name>42092</name><desc>Killarney Portage 42092, ~473 meters (94 rods)</desc><link href="https://www.paddleplanner.com/tools/portage.aspx?portid=42092"><text>More info on Paddle Planner.com</text></link><sym>Trail Head</sym><type>Portage</type></wpt><wpt lat="46.19762" lon="-81.28493"><name>42093</name><desc>Killarney Portage 42093, ~123 meters (24 rods)</desc><link href="https://www.paddleplanner.com/tools/portage.aspx?portid=42093"><text>More info on Paddle Planner.com</text></link><sym>Trail Head</sym><type>Portage</type></wpt><wpt lat="46.1983" lon="-81.2837"><name>42093</name><desc>Killarney Portage 42093, ~123 meters (24 rods)</desc><link href="https://www.paddleplanner.com/tools/portage.aspx?portid=42093"><text>More info on Paddle Planner.com</text></link><sym>Trail Head</sym><type>Portage</type></wpt><wpt lat="46.17514" lon="-81.23156"><name>42094</name><desc>Killarney Portage 42094, ~153 meters (30 rods)</desc><link href="https://www.paddleplanner.com/tools/portage.aspx?portid=42094"><text>More info on Paddle Planner.com</text></link><sym>Trail Head</sym><type>Portage</type></wpt><wpt lat="46.17387" lon="-81.23234"><name>42094</name><desc>Killarney Portage 42094, ~153 meters (30 rods)</desc><link href="https://www.paddleplanner.com/tools/portage.aspx?portid=42094"><text>More info on Paddle Planner.com</text></link><sym>Trail Head</sym><type>Portage</type></wpt><wpt lat="46.1825" lon="-81.23872"><name>42095</name><desc>Killarney Portage 42095, ~1430 meters (284 rods)</desc><link href="https://www.paddleplanner.com/tools/portage.aspx?portid=42095"><text>More info on Paddle Planner.com</text></link><sym>Trail Head</sym><type>Portage</type></wpt><wpt lat="46.19017" lon="-81.22945"><name>42095</name><desc>Killarney Portage 42095, ~1430 meters (284 rods)</desc><link href="https://www.paddleplanner.com/tools/portage.aspx?portid=42095"><text>More info on Paddle Planner.com</text></link><sym>Trail Head</sym><type>Portage</type></wpt><wpt lat="46.19495" lon="-81.20421"><name>42096</name><desc>Killarney Portage 42096, ~467 meters (93 rods)</desc><link href="https://www.paddleplanner.com/tools/portage.aspx?portid=42096"><text>More info on Paddle Planner.com</text></link><sym>Trail Head</sym><type>Portage</type></wpt><wpt lat="46.19089" lon="-81.20433"><name>42096</name><desc>Killarney Portage 42096, ~467 meters (93 rods)</desc><link href="https://www.paddleplanner.com/tools/portage.aspx?portid=42096"><text>More info on Paddle Planner.com</text></link><sym>Trail Head</sym><type>Portage</type></wpt><wpt lat="46.14985" lon="-81.22429"><name>42097</name><desc>Killarney Portage 42097, ~114 meters (23 rods)</desc><link href="https://www.paddleplanner.com/tools/portage.aspx?portid=42097"><text>More info on Paddle Planner.com</text></link><sym>Trail Head</sym><type>Portage</type></wpt><wpt lat="46.14904" lon="-81.22348"><name>42097</name><desc>Killarney Portage 42097, ~114 meters (23 rods)</desc><link href="https://www.paddleplanner.com/tools/portage.aspx?portid=42097"><text>More info on Paddle Planner.com</text></link><sym>Trail Head</sym><type>Portage</type></wpt><wpt lat="46.15768" lon="-81.20992"><name>42098</name><desc>Killarney Portage 42098, ~39 meters (8 rods)</desc><link href="https://www.paddleplanner.com/tools/portage.aspx?portid=42098"><text>More info on Paddle Planner.com</text></link><sym>Trail Head</sym><type>Portage</type></wpt><wpt lat="46.15735" lon="-81.20976"><name>42098</name><desc>Killarney Portage 42098, ~39 meters (8 rods)</desc><link href="https://www.paddleplanner.com/tools/portage.aspx?portid=42098"><text>More info on Paddle Planner.com</text></link><sym>Trail Head</sym><type>Portage</type></wpt><wpt lat="46.05558" lon="-81.429"><name>42099</name><desc>Killarney Portage 42099, ~99 meters (20 rods)</desc><link href="https://www.paddleplanner.com/tools/portage.aspx?portid=42099"><text>More info on Paddle Planner.com</text></link><sym>Trail Head</sym><type>Portage</type></wpt><wpt lat="46.05642" lon="-81.42859"><name>42099</name><desc>Killarney Portage 42099, ~99 meters (20 rods)</desc><link href="https://www.paddleplanner.com/tools/portage.aspx?portid=42099"><text>More info on Paddle Planner.com</text></link><sym>Trail Head</sym><type>Portage</type></wpt><wpt lat="46.05727" lon="-81.42747"><name>42100</name><desc>Killarney Portage 42100, ~129 meters (26 rods)</desc><link href="https://www.paddleplanner.com/tools/portage.aspx?portid=42100"><text>More info on Paddle Planner.com</text></link><sym>Trail Head</sym><type>Portage</type></wpt><wpt lat="46.05642" lon="-81.42859"><name>42100</name><desc>Killarney Portage 42100, ~129 meters (26 rods)</desc><link href="https://www.paddleplanner.com/tools/portage.aspx?portid=42100"><text>More info on Paddle Planner.com</text></link><sym>Trail Head</sym><type>Portage</type></wpt><wpt lat="46.05542" lon="-81.44224"><name>42101</name><desc>Killarney Portage 42101, ~154 meters (31 rods)</desc><link href="https://www.paddleplanner.com/tools/portage.aspx?portid=42101"><text>More info on Paddle Planner.com</text></link><sym>Trail Head</sym><type>Portage</type></wpt><wpt lat="46.05415" lon="-81.44176"><name>42101</name><desc>Killarney Portage 42101, ~154 meters (31 rods)</desc><link href="https://www.paddleplanner.com/tools/portage.aspx?portid=42101"><text>More info on Paddle Planner.com</text></link><sym>Trail Head</sym><type>Portage</type></wpt><wpt lat="46.05444" lon="-81.44962"><name>42102</name><desc>Killarney Portage 42102, ~207 meters (41 rods)</desc><link href="https://www.paddleplanner.com/tools/portage.aspx?portid=42102"><text>More info on Paddle Planner.com</text></link><sym>Trail Head</sym><type>Portage</type></wpt><wpt lat="46.05498" lon="-81.44749"><name>42102</name><desc>Killarney Portage 42102, ~207 meters (41 rods)</desc><link href="https://www.paddleplanner.com/tools/portage.aspx?portid=42102"><text>More info on Paddle Planner.com</text></link><sym>Trail Head</sym><type>Portage</type></wpt><wpt lat="46.08389" lon="-81.30551"><name>42103</name><desc>Killarney Portage 42103, ~26 meters (5 rods)</desc><link href="https://www.paddleplanner.com/tools/portage.aspx?portid=42103"><text>More info on Paddle Planner.com</text></link><sym>Trail Head</sym><type>Portage</type></wpt><wpt lat="46.08404" lon="-81.30577"><name>42103</name><desc>Killarney Portage 42103, ~26 meters (5 rods)</desc><link href="https://www.paddleplanner.com/tools/portage.aspx?portid=42103"><text>More info on Paddle Planner.com</text></link><sym>Trail Head</sym><type>Portage</type></wpt><wpt lat="46.12136" lon="-81.21193"><name>42104</name><desc>Killarney Portage 42104, ~73 meters (15 rods)</desc><link href="https://www.paddleplanner.com/tools/portage.aspx?portid=42104"><text>More info on Paddle Planner.com</text></link><sym>Trail Head</sym><type>Portage</type></wpt><wpt lat="46.12196" lon="-81.21163"><name>42104</name><desc>Killarney Portage 42104, ~73 meters (15 rods)</desc><link href="https://www.paddleplanner.com/tools/portage.aspx?portid=42104"><text>More info on Paddle Planner.com</text></link><sym>Trail Head</sym><type>Portage</type></wpt><wpt lat="46.04087" lon="-81.35291"><name>42110</name><desc>Killarney Portage 42110, ~215 meters (43 rods)</desc><link href="https://www.paddleplanner.com/tools/portage.aspx?portid=42110"><text>More info on Paddle Planner.com</text></link><sym>Trail Head</sym><type>Portage</type></wpt><wpt lat="46.04065" lon="-81.35014"><name>42110</name><desc>Killarney Portage 42110, ~215 meters (43 rods)</desc><link href="https://www.paddleplanner.com/tools/portage.aspx?portid=42110"><text>More info on Paddle Planner.com</text></link><sym>Trail Head</sym><type>Portage</type></wpt><wpt lat="46.06271" lon="-81.47501"><name>42111</name><desc>Killarney Portage 42111, ~128 meters (26 rods)</desc><link href="https://www.paddleplanner.com/tools/portage.aspx?portid=42111"><text>More info on Paddle Planner.com</text></link><sym>Trail Head</sym><type>Portage</type></wpt><wpt lat="46.06156" lon="-81.47505"><name>42111</name><desc>Killarney Portage 42111, ~128 meters (26 rods)</desc><link href="https://www.paddleplanner.com/tools/portage.aspx?portid=42111"><text>More info on Paddle Planner.com</text></link><sym>Trail Head</sym><type>Portage</type></wpt><wpt lat="46.12833" lon="-81.27052"><name>42119</name><desc>Killarney Portage 42119, ~92 meters (18 rods)</desc><link href="https://www.paddleplanner.com/tools/portage.aspx?portid=42119"><text>More info on Paddle Planner.com</text></link><sym>Trail Head</sym><type>Portage</type></wpt><wpt lat="46.12901" lon="-81.27035"><name>42119</name><desc>Killarney Portage 42119, ~92 meters (18 rods)</desc><link href="https://www.paddleplanner.com/tools/portage.aspx?portid=42119"><text>More info on Paddle Planner.com</text></link><sym>Trail Head</sym><type>Portage</type></wpt><wpt lat="46.17767" lon="-81.42368"><name>42130</name><desc>Killarney Portage 42130, ~26 meters (5 rods)</desc><link href="https://www.paddleplanner.com/tools/portage.aspx?portid=42130"><text>More info on Paddle Planner.com</text></link><sym>Trail Head</sym><type>Portage</type></wpt><wpt lat="46.1779" lon="-81.42374"><name>42130</name><desc>Killarney Portage 42130, ~26 meters (5 rods)</desc><link href="https://www.paddleplanner.com/tools/portage.aspx?portid=42130"><text>More info on Paddle Planner.com</text></link><sym>Trail Head</sym><type>Portage</type></wpt><wpt lat="46.05336" lon="-81.47511"><name>42131</name><desc>Killarney Portage 42131, ~936 meters (186 rods)</desc><link href="https://www.paddleplanner.com/tools/portage.aspx?portid=42131"><text>More info on Paddle Planner.com</text></link><sym>Trail Head</sym><type>Portage</type></wpt><wpt lat="46.06148" lon="-81.47509"><name>42131</name><desc>Killarney Portage 42131, ~936 meters (186 rods)</desc><link href="https://www.paddleplanner.com/tools/portage.aspx?portid=42131"><text>More info on Paddle Planner.com</text></link><sym>Trail Head</sym><type>Portage</type></wpt></gpx>