<?xml version="1.0" encoding="utf-8" standalone="no"?><gpx version="1.1" xmlns="http://www.topografix.com/GPX/1/1" xmlns:xsi="http://www.w3.org/2001/XMLSchema-instance" xsi:schemaLocation="http://www.topografix.com/GPX/1/1 http://www.topografix.com/GPX/1/1/gpx.xsd" creator="Paddle Planner.com"><metadata><link href="https://www.paddleplanner.com"><text>Paddle Planner.com</text></link></metadata><wpt lat="46.02358" lon="-81.41387"><name>1</name><desc><![CDATA[Killarney 1, Open-Potential]]></desc><link href="https://www.paddleplanner.com/tools/campsite.aspx?campid=65000"><text>More info on Paddle Planner.com</text></link><sym>Campground</sym><type>Open-Potential</type></wpt><wpt lat="46.02767" lon="-81.41078"><name>2</name><desc><![CDATA[Killarney 2, Open-Potential, Avg User Rating: 3 out of 5, Avg Tent Pads: 1]]></desc><link href="https://www.paddleplanner.com/tools/campsite.aspx?campid=65001"><text>More info on Paddle Planner.com</text></link><sym>Campground</sym><type>Open-Potential</type></wpt><wpt lat="46.03178" lon="-81.40072"><name>3</name><desc><![CDATA[Killarney 3, Open-Potential]]></desc><link href="https://www.paddleplanner.com/tools/campsite.aspx?campid=65002"><text>More info on Paddle Planner.com</text></link><sym>Campground</sym><type>Open-Potential</type></wpt><wpt lat="46.03831" lon="-81.38729"><name>4</name><desc><![CDATA[Killarney 4, Open-Potential, Avg User Rating: 4 out of 5, Avg Tent Pads: 3]]></desc><link href="https://www.paddleplanner.com/tools/campsite.aspx?campid=65003"><text>More info on Paddle Planner.com</text></link><sym>Campground</sym><type>Open-Potential</type></wpt><wpt lat="46.03597" lon="-81.38572"><name>5</name><desc><![CDATA[Killarney 5, Open-Potential]]></desc><link href="https://www.paddleplanner.com/tools/campsite.aspx?campid=65004"><text>More info on Paddle Planner.com</text></link><sym>Campground</sym><type>Open-Potential</type></wpt><wpt lat="46.05199" lon="-81.36224"><name>11</name><desc><![CDATA[Killarney 11, Open-Potential]]></desc><link href="https://www.paddleplanner.com/tools/campsite.aspx?campid=65005"><text>More info on Paddle Planner.com</text></link><sym>Campground</sym><type>Open-Potential</type></wpt><wpt lat="46.05498" lon="-81.36356"><name>12</name><desc><![CDATA[Killarney 12, Open-Potential]]></desc><link href="https://www.paddleplanner.com/tools/campsite.aspx?campid=65006"><text>More info on Paddle Planner.com</text></link><sym>Campground</sym><type>Open-Potential</type></wpt><wpt lat="46.05785" lon="-81.36319"><name>13</name><desc><![CDATA[Killarney 13, Open-Potential]]></desc><link href="https://www.paddleplanner.com/tools/campsite.aspx?campid=65007"><text>More info on Paddle Planner.com</text></link><sym>Campground</sym><type>Open-Potential</type></wpt><wpt lat="46.05963" lon="-81.36758"><name>20</name><desc><![CDATA[Killarney 20, Open-Potential]]></desc><link href="https://www.paddleplanner.com/tools/campsite.aspx?campid=65008"><text>More info on Paddle Planner.com</text></link><sym>Campground</sym><type>Open-Potential</type></wpt><wpt lat="46.06035" lon="-81.3737"><name>21</name><desc><![CDATA[Killarney 21, Open-Potential]]></desc><link href="https://www.paddleplanner.com/tools/campsite.aspx?campid=65009"><text>More info on Paddle Planner.com</text></link><sym>Campground</sym><type>Open-Potential</type></wpt><wpt lat="46.06388" lon="-81.36109"><name>14</name><desc><![CDATA[Killarney 14, Open-Potential, Avg User Rating: 3 out of 5, Avg Tent Pads: 2]]></desc><link href="https://www.paddleplanner.com/tools/campsite.aspx?campid=65010"><text>More info on Paddle Planner.com</text></link><sym>Campground</sym><type>Open-Potential</type></wpt><wpt lat="46.06563" lon="-81.35967"><name>15</name><desc><![CDATA[Killarney 15, Open-Potential]]></desc><link href="https://www.paddleplanner.com/tools/campsite.aspx?campid=65011"><text>More info on Paddle Planner.com</text></link><sym>Campground</sym><type>Open-Potential</type></wpt><wpt lat="46.06461" lon="-81.35698"><name>16</name><desc><![CDATA[Killarney 16, Closed-Unverified]]></desc><link href="https://www.paddleplanner.com/tools/campsite.aspx?campid=65012"><text>More info on Paddle Planner.com</text></link><sym>Navaid, Black</sym><type>Closed-Unverified</type></wpt><wpt lat="46.07496" lon="-81.35023"><name>19</name><desc><![CDATA[Killarney 19, Open-Potential]]></desc><link href="https://www.paddleplanner.com/tools/campsite.aspx?campid=65013"><text>More info on Paddle Planner.com</text></link><sym>Campground</sym><type>Open-Potential</type></wpt><wpt lat="46.07909" lon="-81.34109"><name>17</name><desc><![CDATA[Killarney 17, Open-Potential]]></desc><link href="https://www.paddleplanner.com/tools/campsite.aspx?campid=65014"><text>More info on Paddle Planner.com</text></link><sym>Campground</sym><type>Open-Potential</type></wpt><wpt lat="46.0808" lon="-81.33939"><name>18</name><desc><![CDATA[Killarney 18, Open-Potential]]></desc><link href="https://www.paddleplanner.com/tools/campsite.aspx?campid=65015"><text>More info on Paddle Planner.com</text></link><sym>Campground</sym><type>Open-Potential</type></wpt><wpt lat="46.09071" lon="-81.30469"><name>32</name><desc><![CDATA[Killarney 32, Open-Potential]]></desc><link href="https://www.paddleplanner.com/tools/campsite.aspx?campid=65016"><text>More info on Paddle Planner.com</text></link><sym>Campground</sym><type>Open-Potential</type></wpt><wpt lat="46.08794" lon="-81.31292"><name>31</name><desc><![CDATA[Killarney 31, Open-Potential]]></desc><link href="https://www.paddleplanner.com/tools/campsite.aspx?campid=65017"><text>More info on Paddle Planner.com</text></link><sym>Campground</sym><type>Open-Potential</type></wpt><wpt lat="46.08291" lon="-81.30807"><name>33</name><desc><![CDATA[Killarney 33, Open-Potential]]></desc><link href="https://www.paddleplanner.com/tools/campsite.aspx?campid=65018"><text>More info on Paddle Planner.com</text></link><sym>Campground</sym><type>Open-Potential</type></wpt><wpt lat="46.09372" lon="-81.2909"><name>41</name><desc><![CDATA[Killarney 41, Open-Potential]]></desc><link href="https://www.paddleplanner.com/tools/campsite.aspx?campid=65019"><text>More info on Paddle Planner.com</text></link><sym>Campground</sym><type>Open-Potential</type></wpt><wpt lat="46.0623" lon="-81.32188"><name>51</name><desc><![CDATA[Killarney 51, Open-Potential]]></desc><link href="https://www.paddleplanner.com/tools/campsite.aspx?campid=65020"><text>More info on Paddle Planner.com</text></link><sym>Campground</sym><type>Open-Potential</type></wpt><wpt lat="46.06783" lon="-81.30629"><name>52</name><desc><![CDATA[Killarney 52, Open-Potential]]></desc><link href="https://www.paddleplanner.com/tools/campsite.aspx?campid=65021"><text>More info on Paddle Planner.com</text></link><sym>Campground</sym><type>Open-Potential</type></wpt><wpt lat="46.06045" lon="-81.41165"><name>63</name><desc><![CDATA[Killarney 63, Closed-Unverified]]></desc><link href="https://www.paddleplanner.com/tools/campsite.aspx?campid=65022"><text>More info on Paddle Planner.com</text></link><sym>Navaid, Black</sym><type>Closed-Unverified</type></wpt><wpt lat="46.05723" lon="-81.41398"><name>64</name><desc><![CDATA[Killarney 64, Open-Potential]]></desc><link href="https://www.paddleplanner.com/tools/campsite.aspx?campid=65023"><text>More info on Paddle Planner.com</text></link><sym>Campground</sym><type>Open-Potential</type></wpt><wpt lat="46.05595" lon="-81.41278"><name>65</name><desc><![CDATA[Killarney 65, Open-Potential]]></desc><link href="https://www.paddleplanner.com/tools/campsite.aspx?campid=65024"><text>More info on Paddle Planner.com</text></link><sym>Campground</sym><type>Open-Potential</type></wpt><wpt lat="46.05257" lon="-81.40402"><name>62</name><desc><![CDATA[Killarney 62, Open-Potential]]></desc><link href="https://www.paddleplanner.com/tools/campsite.aspx?campid=65025"><text>More info on Paddle Planner.com</text></link><sym>Campground</sym><type>Open-Potential</type></wpt><wpt lat="46.05368" lon="-81.387"><name>61</name><desc><![CDATA[Killarney 61, Open-Potential]]></desc><link href="https://www.paddleplanner.com/tools/campsite.aspx?campid=65026"><text>More info on Paddle Planner.com</text></link><sym>Campground</sym><type>Open-Potential</type></wpt><wpt lat="46.05417" lon="-81.43914"><name>72</name><desc><![CDATA[Killarney 72, Open-Potential]]></desc><link href="https://www.paddleplanner.com/tools/campsite.aspx?campid=65027"><text>More info on Paddle Planner.com</text></link><sym>Campground</sym><type>Open-Potential</type></wpt><wpt lat="46.05364" lon="-81.43632"><name>71</name><desc><![CDATA[Killarney 71, Open-Potential]]></desc><link href="https://www.paddleplanner.com/tools/campsite.aspx?campid=65028"><text>More info on Paddle Planner.com</text></link><sym>Campground</sym><type>Open-Potential</type></wpt><wpt lat="46.04665" lon="-81.47923"><name>81</name><desc><![CDATA[Killarney 81, Open-Potential]]></desc><link href="https://www.paddleplanner.com/tools/campsite.aspx?campid=65029"><text>More info on Paddle Planner.com</text></link><sym>Campground</sym><type>Open-Potential</type></wpt><wpt lat="46.04417" lon="-81.5038"><name>82</name><desc><![CDATA[Killarney 82, Open-Potential]]></desc><link href="https://www.paddleplanner.com/tools/campsite.aspx?campid=65030"><text>More info on Paddle Planner.com</text></link><sym>Campground</sym><type>Open-Potential</type></wpt><wpt lat="46.04527" lon="-81.50625"><name>83</name><desc><![CDATA[Killarney 83, Open-Potential]]></desc><link href="https://www.paddleplanner.com/tools/campsite.aspx?campid=65031"><text>More info on Paddle Planner.com</text></link><sym>Campground</sym><type>Open-Potential</type></wpt><wpt lat="45.99479" lon="-81.37351"><name>91</name><desc><![CDATA[Killarney 91, Open-Potential]]></desc><link href="https://www.paddleplanner.com/tools/campsite.aspx?campid=65032"><text>More info on Paddle Planner.com</text></link><sym>Campground</sym><type>Open-Potential</type></wpt><wpt lat="45.99482" lon="-81.31531"><name>92</name><desc><![CDATA[Killarney 92, Open-Potential]]></desc><link href="https://www.paddleplanner.com/tools/campsite.aspx?campid=65033"><text>More info on Paddle Planner.com</text></link><sym>Campground</sym><type>Open-Potential</type></wpt><wpt lat="46.0537" lon="-81.30395"><name>101</name><desc><![CDATA[Killarney 101, Open-Potential]]></desc><link href="https://www.paddleplanner.com/tools/campsite.aspx?campid=65034"><text>More info on Paddle Planner.com</text></link><sym>Campground</sym><type>Open-Potential</type></wpt><wpt lat="46.06549" lon="-81.28821"><name>104</name><desc><![CDATA[Killarney 104, Open-Potential]]></desc><link href="https://www.paddleplanner.com/tools/campsite.aspx?campid=65035"><text>More info on Paddle Planner.com</text></link><sym>Campground</sym><type>Open-Potential</type></wpt><wpt lat="46.06355" lon="-81.28834"><name>103</name><desc><![CDATA[Killarney 103, Open-Potential]]></desc><link href="https://www.paddleplanner.com/tools/campsite.aspx?campid=65036"><text>More info on Paddle Planner.com</text></link><sym>Campground</sym><type>Open-Potential</type></wpt><wpt lat="46.06565" lon="-81.2662"><name>105</name><desc><![CDATA[Killarney 105, Open-Potential]]></desc><link href="https://www.paddleplanner.com/tools/campsite.aspx?campid=65037"><text>More info on Paddle Planner.com</text></link><sym>Campground</sym><type>Open-Potential</type></wpt><wpt lat="46.06628" lon="-81.25693"><name>106</name><desc><![CDATA[Killarney 106, Open-Potential]]></desc><link href="https://www.paddleplanner.com/tools/campsite.aspx?campid=65038"><text>More info on Paddle Planner.com</text></link><sym>Campground</sym><type>Open-Potential</type></wpt><wpt lat="46.0617" lon="-81.2884"><name>102</name><desc><![CDATA[Killarney 102, Open-Potential]]></desc><link href="https://www.paddleplanner.com/tools/campsite.aspx?campid=65039"><text>More info on Paddle Planner.com</text></link><sym>Campground</sym><type>Open-Potential</type></wpt><wpt lat="46.08165" lon="-81.23653"><name>111</name><desc><![CDATA[Killarney 111, Open-Potential]]></desc><link href="https://www.paddleplanner.com/tools/campsite.aspx?campid=65040"><text>More info on Paddle Planner.com</text></link><sym>Campground</sym><type>Open-Potential</type></wpt><wpt lat="46.0883" lon="-81.23667"><name>112</name><desc><![CDATA[Killarney 112, Open-Potential]]></desc><link href="https://www.paddleplanner.com/tools/campsite.aspx?campid=65041"><text>More info on Paddle Planner.com</text></link><sym>Campground</sym><type>Open-Potential</type></wpt><wpt lat="46.08347" lon="-81.24895"><name>113</name><desc><![CDATA[Killarney 113, Open-Potential]]></desc><link href="https://www.paddleplanner.com/tools/campsite.aspx?campid=65042"><text>More info on Paddle Planner.com</text></link><sym>Campground</sym><type>Open-Potential</type></wpt><wpt lat="46.08953" lon="-81.25071"><name>119</name><desc><![CDATA[Killarney 119, Open-Potential]]></desc><link href="https://www.paddleplanner.com/tools/campsite.aspx?campid=65043"><text>More info on Paddle Planner.com</text></link><sym>Campground</sym><type>Open-Potential</type></wpt><wpt lat="46.09342" lon="-81.24411"><name>118</name><desc><![CDATA[Killarney 118, Open-Potential]]></desc><link href="https://www.paddleplanner.com/tools/campsite.aspx?campid=65044"><text>More info on Paddle Planner.com</text></link><sym>Campground</sym><type>Open-Potential</type></wpt><wpt lat="46.0999" lon="-81.22672"><name>114</name><desc><![CDATA[Killarney 114, Open-Potential, Avg User Rating: 4 out of 5, Avg Tent Pads: 1]]></desc><link href="https://www.paddleplanner.com/tools/campsite.aspx?campid=65045"><text>More info on Paddle Planner.com</text></link><sym>Campground</sym><type>Open-Potential</type></wpt><wpt lat="46.10538" lon="-81.23229"><name>115</name><desc><![CDATA[Killarney 115, Open-Potential]]></desc><link href="https://www.paddleplanner.com/tools/campsite.aspx?campid=65046"><text>More info on Paddle Planner.com</text></link><sym>Campground</sym><type>Open-Potential</type></wpt><wpt lat="46.11302" lon="-81.22763"><name>116</name><desc><![CDATA[Killarney 116, Open-Potential]]></desc><link href="https://www.paddleplanner.com/tools/campsite.aspx?campid=65047"><text>More info on Paddle Planner.com</text></link><sym>Campground</sym><type>Open-Potential</type></wpt><wpt lat="46.11246" lon="-81.22671"><name>117</name><desc><![CDATA[Killarney 117, Open-Potential]]></desc><link href="https://www.paddleplanner.com/tools/campsite.aspx?campid=65048"><text>More info on Paddle Planner.com</text></link><sym>Campground</sym><type>Open-Potential</type></wpt><wpt lat="46.11373" lon="-81.193"><name>121</name><desc><![CDATA[Killarney 121, Open-Potential]]></desc><link href="https://www.paddleplanner.com/tools/campsite.aspx?campid=65049"><text>More info on Paddle Planner.com</text></link><sym>Campground</sym><type>Open-Potential</type></wpt><wpt lat="46.11679" lon="-81.18646"><name>122</name><desc><![CDATA[Killarney 122, Open-Potential]]></desc><link href="https://www.paddleplanner.com/tools/campsite.aspx?campid=65050"><text>More info on Paddle Planner.com</text></link><sym>Campground</sym><type>Open-Potential</type></wpt><wpt lat="46.12761" lon="-81.23161"><name>132</name><desc><![CDATA[Killarney 132, Open-Potential]]></desc><link href="https://www.paddleplanner.com/tools/campsite.aspx?campid=65051"><text>More info on Paddle Planner.com</text></link><sym>Campground</sym><type>Open-Potential</type></wpt><wpt lat="46.12299" lon="-81.21676"><name>131</name><desc><![CDATA[Killarney 131, Open-Potential]]></desc><link href="https://www.paddleplanner.com/tools/campsite.aspx?campid=65052"><text>More info on Paddle Planner.com</text></link><sym>Campground</sym><type>Open-Potential</type></wpt><wpt lat="46.12671" lon="-81.20326"><name>133</name><desc><![CDATA[Killarney 133, Open-Potential]]></desc><link href="https://www.paddleplanner.com/tools/campsite.aspx?campid=65053"><text>More info on Paddle Planner.com</text></link><sym>Campground</sym><type>Open-Potential</type></wpt><wpt lat="46.12833" lon="-81.20048"><name>134</name><desc><![CDATA[Killarney 134, Closed-Unverified]]></desc><link href="https://www.paddleplanner.com/tools/campsite.aspx?campid=65054"><text>More info on Paddle Planner.com</text></link><sym>Navaid, Black</sym><type>Closed-Unverified</type></wpt><wpt lat="46.13265" lon="-81.19376"><name>136</name><desc><![CDATA[Killarney 136, Open-Potential]]></desc><link href="https://www.paddleplanner.com/tools/campsite.aspx?campid=65055"><text>More info on Paddle Planner.com</text></link><sym>Campground</sym><type>Open-Potential</type></wpt><wpt lat="46.13507" lon="-81.2014"><name>135</name><desc><![CDATA[Killarney 135, Open-Potential]]></desc><link href="https://www.paddleplanner.com/tools/campsite.aspx?campid=65056"><text>More info on Paddle Planner.com</text></link><sym>Campground</sym><type>Open-Potential</type></wpt><wpt lat="46.21379" lon="-81.47664"><name>428</name><desc><![CDATA[Killarney 428, Open-Potential]]></desc><link href="https://www.paddleplanner.com/tools/campsite.aspx?campid=65057"><text>More info on Paddle Planner.com</text></link><sym>Campground</sym><type>Open-Potential</type></wpt><wpt lat="46.13705" lon="-81.19491"><name>139</name><desc><![CDATA[Killarney 139, Open-Potential]]></desc><link href="https://www.paddleplanner.com/tools/campsite.aspx?campid=65058"><text>More info on Paddle Planner.com</text></link><sym>Campground</sym><type>Open-Potential</type></wpt><wpt lat="46.13798" lon="-81.19649"><name>138</name><desc><![CDATA[Killarney 138, Open-Potential]]></desc><link href="https://www.paddleplanner.com/tools/campsite.aspx?campid=65059"><text>More info on Paddle Planner.com</text></link><sym>Campground</sym><type>Open-Potential</type></wpt><wpt lat="46.13823" lon="-81.20312"><name>137</name><desc><![CDATA[Killarney 137, Open-Potential]]></desc><link href="https://www.paddleplanner.com/tools/campsite.aspx?campid=65060"><text>More info on Paddle Planner.com</text></link><sym>Campground</sym><type>Open-Potential</type></wpt><wpt lat="46.13662" lon="-81.19007"><name>140</name><desc><![CDATA[Killarney 140, Open-Potential]]></desc><link href="https://www.paddleplanner.com/tools/campsite.aspx?campid=65061"><text>More info on Paddle Planner.com</text></link><sym>Campground</sym><type>Open-Potential</type></wpt><wpt lat="46.15515" lon="-81.19624"><name>145</name><desc><![CDATA[Killarney 145, Open-Potential]]></desc><link href="https://www.paddleplanner.com/tools/campsite.aspx?campid=65062"><text>More info on Paddle Planner.com</text></link><sym>Campground</sym><type>Open-Potential</type></wpt><wpt lat="46.16019" lon="-81.19536"><name>146</name><desc><![CDATA[Killarney 146, Open-Potential]]></desc><link href="https://www.paddleplanner.com/tools/campsite.aspx?campid=65063"><text>More info on Paddle Planner.com</text></link><sym>Campground</sym><type>Open-Potential</type></wpt><wpt lat="46.13339" lon="-81.1776"><name>141</name><desc><![CDATA[Killarney 141, Open-Potential]]></desc><link href="https://www.paddleplanner.com/tools/campsite.aspx?campid=65064"><text>More info on Paddle Planner.com</text></link><sym>Campground</sym><type>Open-Potential</type></wpt><wpt lat="46.13309" lon="-81.17375"><name>142</name><desc><![CDATA[Killarney 142, Open-Potential]]></desc><link href="https://www.paddleplanner.com/tools/campsite.aspx?campid=65065"><text>More info on Paddle Planner.com</text></link><sym>Campground</sym><type>Open-Potential</type></wpt><wpt lat="46.13011" lon="-81.16803"><name>143</name><desc><![CDATA[Killarney 143, Open-Potential]]></desc><link href="https://www.paddleplanner.com/tools/campsite.aspx?campid=65066"><text>More info on Paddle Planner.com</text></link><sym>Campground</sym><type>Open-Potential</type></wpt><wpt lat="46.12919" lon="-81.16265"><name>144</name><desc><![CDATA[Killarney 144, Open-Potential]]></desc><link href="https://www.paddleplanner.com/tools/campsite.aspx?campid=65067"><text>More info on Paddle Planner.com</text></link><sym>Campground</sym><type>Open-Potential</type></wpt><wpt lat="46.1484" lon="-81.22054"><name>158</name><desc><![CDATA[Killarney 158, Open-Potential]]></desc><link href="https://www.paddleplanner.com/tools/campsite.aspx?campid=65068"><text>More info on Paddle Planner.com</text></link><sym>Campground</sym><type>Open-Potential</type></wpt><wpt lat="46.15735" lon="-81.21406"><name>151</name><desc><![CDATA[Killarney 151, Open-Potential]]></desc><link href="https://www.paddleplanner.com/tools/campsite.aspx?campid=65069"><text>More info on Paddle Planner.com</text></link><sym>Campground</sym><type>Open-Potential</type></wpt><wpt lat="46.15542" lon="-81.22556"><name>152</name><desc><![CDATA[Killarney 152, Open-Potential]]></desc><link href="https://www.paddleplanner.com/tools/campsite.aspx?campid=65070"><text>More info on Paddle Planner.com</text></link><sym>Campground</sym><type>Open-Potential</type></wpt><wpt lat="46.15339" lon="-81.23397"><name>153</name><desc><![CDATA[Killarney 153, Open-Potential]]></desc><link href="https://www.paddleplanner.com/tools/campsite.aspx?campid=65071"><text>More info on Paddle Planner.com</text></link><sym>Campground</sym><type>Open-Potential</type></wpt><wpt lat="46.15749" lon="-81.24055"><name>154</name><desc><![CDATA[Killarney 154, Open-Potential]]></desc><link href="https://www.paddleplanner.com/tools/campsite.aspx?campid=65072"><text>More info on Paddle Planner.com</text></link><sym>Campground</sym><type>Open-Potential</type></wpt><wpt lat="46.1592" lon="-81.25094"><name>155</name><desc><![CDATA[Killarney 155, Open-Potential]]></desc><link href="https://www.paddleplanner.com/tools/campsite.aspx?campid=65073"><text>More info on Paddle Planner.com</text></link><sym>Campground</sym><type>Open-Potential</type></wpt><wpt lat="46.15998" lon="-81.25206"><name>156</name><desc><![CDATA[Killarney 156, Open-Potential]]></desc><link href="https://www.paddleplanner.com/tools/campsite.aspx?campid=65074"><text>More info on Paddle Planner.com</text></link><sym>Campground</sym><type>Open-Potential</type></wpt><wpt lat="46.16648" lon="-81.23917"><name>157</name><desc><![CDATA[Killarney 157, Open-Potential]]></desc><link href="https://www.paddleplanner.com/tools/campsite.aspx?campid=65075"><text>More info on Paddle Planner.com</text></link><sym>Campground</sym><type>Open-Potential</type></wpt><wpt lat="46.17175" lon="-81.23089"><name>161</name><desc><![CDATA[Killarney 161, Open-Potential, Avg User Rating: 3 out of 5, Avg Tent Pads: 4]]></desc><link href="https://www.paddleplanner.com/tools/campsite.aspx?campid=65076"><text>More info on Paddle Planner.com</text></link><sym>Campground</sym><type>Open-Potential</type></wpt><wpt lat="46.17222" lon="-81.22257"><name>162</name><desc><![CDATA[Killarney 162, Open-Potential]]></desc><link href="https://www.paddleplanner.com/tools/campsite.aspx?campid=65077"><text>More info on Paddle Planner.com</text></link><sym>Campground</sym><type>Open-Potential</type></wpt><wpt lat="46.17507" lon="-81.22982"><name>163</name><desc><![CDATA[Killarney 163, Open-Potential]]></desc><link href="https://www.paddleplanner.com/tools/campsite.aspx?campid=65078"><text>More info on Paddle Planner.com</text></link><sym>Campground</sym><type>Open-Potential</type></wpt><wpt lat="46.18852" lon="-81.21726"><name>164</name><desc><![CDATA[Killarney 164, Open-Potential, Avg User Rating: 1 out of 5, Avg Tent Pads: 1]]></desc><link href="https://www.paddleplanner.com/tools/campsite.aspx?campid=65079"><text>More info on Paddle Planner.com</text></link><sym>Campground</sym><type>Open-Potential</type></wpt><wpt lat="46.19207" lon="-81.20907"><name>165</name><desc><![CDATA[Killarney 165, Open-Potential]]></desc><link href="https://www.paddleplanner.com/tools/campsite.aspx?campid=65080"><text>More info on Paddle Planner.com</text></link><sym>Campground</sym><type>Open-Potential</type></wpt><wpt lat="46.2014" lon="-81.21763"><name>166</name><desc><![CDATA[Killarney 166, Open-Potential]]></desc><link href="https://www.paddleplanner.com/tools/campsite.aspx?campid=65081"><text>More info on Paddle Planner.com</text></link><sym>Campground</sym><type>Open-Potential</type></wpt><wpt lat="46.1766" lon="-81.28978"><name>171</name><desc><![CDATA[Killarney 171, Open-Potential, Avg User Rating: 4 out of 5, Avg Tent Pads: 3]]></desc><link href="https://www.paddleplanner.com/tools/campsite.aspx?campid=65082"><text>More info on Paddle Planner.com</text></link><sym>Campground</sym><type>Open-Potential</type></wpt><wpt lat="46.1795" lon="-81.29496"><name>172</name><desc><![CDATA[Killarney 172, Open-Potential]]></desc><link href="https://www.paddleplanner.com/tools/campsite.aspx?campid=65083"><text>More info on Paddle Planner.com</text></link><sym>Campground</sym><type>Open-Potential</type></wpt><wpt lat="46.1789" lon="-81.30012"><name>173</name><desc><![CDATA[Killarney 173, Open-Potential]]></desc><link href="https://www.paddleplanner.com/tools/campsite.aspx?campid=65084"><text>More info on Paddle Planner.com</text></link><sym>Campground</sym><type>Open-Potential</type></wpt><wpt lat="46.17785" lon="-81.31132"><name>174</name><desc><![CDATA[Killarney 174, Open-Potential]]></desc><link href="https://www.paddleplanner.com/tools/campsite.aspx?campid=65085"><text>More info on Paddle Planner.com</text></link><sym>Campground</sym><type>Open-Potential</type></wpt><wpt lat="46.12542" lon="-81.31519"><name>325</name><desc><![CDATA[Killarney 325, Open-Potential]]></desc><link href="https://www.paddleplanner.com/tools/campsite.aspx?campid=65086"><text>More info on Paddle Planner.com</text></link><sym>Campground</sym><type>Open-Potential</type></wpt><wpt lat="46.13583" lon="-81.29118"><name>194</name><desc><![CDATA[Killarney 194, Open-Potential]]></desc><link href="https://www.paddleplanner.com/tools/campsite.aspx?campid=65087"><text>More info on Paddle Planner.com</text></link><sym>Campground</sym><type>Open-Potential</type></wpt><wpt lat="46.13537" lon="-81.29374"><name>193</name><desc><![CDATA[Killarney 193, Open-Potential]]></desc><link href="https://www.paddleplanner.com/tools/campsite.aspx?campid=65088"><text>More info on Paddle Planner.com</text></link><sym>Campground</sym><type>Open-Potential</type></wpt><wpt lat="46.13648" lon="-81.29768"><name>192</name><desc><![CDATA[Killarney 192, Open-Potential, Avg User Rating: 5 out of 5, Avg Tent Pads: 5]]></desc><link href="https://www.paddleplanner.com/tools/campsite.aspx?campid=65089"><text>More info on Paddle Planner.com</text></link><sym>Campground</sym><type>Open-Potential</type></wpt><wpt lat="46.1406" lon="-81.31178"><name>196</name><desc><![CDATA[Killarney 196, Closed-Unverified]]></desc><link href="https://www.paddleplanner.com/tools/campsite.aspx?campid=65090"><text>More info on Paddle Planner.com</text></link><sym>Navaid, Black</sym><type>Closed-Unverified</type></wpt><wpt lat="46.14396" lon="-81.29259"><name>191</name><desc><![CDATA[Killarney 191, Open-Potential]]></desc><link href="https://www.paddleplanner.com/tools/campsite.aspx?campid=65091"><text>More info on Paddle Planner.com</text></link><sym>Campground</sym><type>Open-Potential</type></wpt><wpt lat="46.13896" lon="-81.28331"><name>190</name><desc><![CDATA[Killarney 190, Open-Potential]]></desc><link href="https://www.paddleplanner.com/tools/campsite.aspx?campid=65092"><text>More info on Paddle Planner.com</text></link><sym>Campground</sym><type>Open-Potential</type></wpt><wpt lat="46.14209" lon="-81.27951"><name>188</name><desc><![CDATA[Killarney 188, Open-Potential]]></desc><link href="https://www.paddleplanner.com/tools/campsite.aspx?campid=65093"><text>More info on Paddle Planner.com</text></link><sym>Campground</sym><type>Open-Potential</type></wpt><wpt lat="46.14292" lon="-81.28383"><name>189</name><desc><![CDATA[Killarney 189, Open-Potential]]></desc><link href="https://www.paddleplanner.com/tools/campsite.aspx?campid=65094"><text>More info on Paddle Planner.com</text></link><sym>Campground</sym><type>Open-Potential</type></wpt><wpt lat="46.14561" lon="-81.26895"><name>186</name><desc><![CDATA[Killarney 186, Open-Potential]]></desc><link href="https://www.paddleplanner.com/tools/campsite.aspx?campid=65095"><text>More info on Paddle Planner.com</text></link><sym>Campground</sym><type>Open-Potential</type></wpt><wpt lat="46.14583" lon="-81.26211"><name>187</name><desc><![CDATA[Killarney 187, Open-Potential]]></desc><link href="https://www.paddleplanner.com/tools/campsite.aspx?campid=65096"><text>More info on Paddle Planner.com</text></link><sym>Campground</sym><type>Open-Potential</type></wpt><wpt lat="46.14929" lon="-81.26909"><name>185</name><desc><![CDATA[Killarney 185, Open-Potential]]></desc><link href="https://www.paddleplanner.com/tools/campsite.aspx?campid=65097"><text>More info on Paddle Planner.com</text></link><sym>Campground</sym><type>Open-Potential</type></wpt><wpt lat="46.15012" lon="-81.26143"><name>183</name><desc><![CDATA[Killarney 183, Open-Potential]]></desc><link href="https://www.paddleplanner.com/tools/campsite.aspx?campid=65098"><text>More info on Paddle Planner.com</text></link><sym>Campground</sym><type>Open-Potential</type></wpt><wpt lat="46.14949" lon="-81.25426"><name>182</name><desc><![CDATA[Killarney 182, Open-Potential]]></desc><link href="https://www.paddleplanner.com/tools/campsite.aspx?campid=65099"><text>More info on Paddle Planner.com</text></link><sym>Campground</sym><type>Open-Potential</type></wpt><wpt lat="46.15213" lon="-81.25899"><name>181</name><desc><![CDATA[Killarney 181, Open-Potential]]></desc><link href="https://www.paddleplanner.com/tools/campsite.aspx?campid=65100"><text>More info on Paddle Planner.com</text></link><sym>Campground</sym><type>Open-Potential</type></wpt><wpt lat="46.15442" lon="-81.27153"><name>184</name><desc><![CDATA[Killarney 184, Open-Potential]]></desc><link href="https://www.paddleplanner.com/tools/campsite.aspx?campid=65101"><text>More info on Paddle Planner.com</text></link><sym>Campground</sym><type>Open-Potential</type></wpt><wpt lat="46.12007" lon="-81.25926"><name>195</name><desc><![CDATA[Killarney 195, Open-Potential]]></desc><link href="https://www.paddleplanner.com/tools/campsite.aspx?campid=65102"><text>More info on Paddle Planner.com</text></link><sym>Campground</sym><type>Open-Potential</type></wpt><wpt lat="46.13358" lon="-81.61366"><name>201</name><desc><![CDATA[Killarney 201, Open-Potential]]></desc><link href="https://www.paddleplanner.com/tools/campsite.aspx?campid=65103"><text>More info on Paddle Planner.com</text></link><sym>Campground</sym><type>Open-Potential</type></wpt><wpt lat="46.13472" lon="-81.60693"><name>202</name><desc><![CDATA[Killarney 202, Open-Potential]]></desc><link href="https://www.paddleplanner.com/tools/campsite.aspx?campid=65104"><text>More info on Paddle Planner.com</text></link><sym>Campground</sym><type>Open-Potential</type></wpt><wpt lat="46.13421" lon="-81.59769"><name>203</name><desc><![CDATA[Killarney 203, Open-Potential]]></desc><link href="https://www.paddleplanner.com/tools/campsite.aspx?campid=65105"><text>More info on Paddle Planner.com</text></link><sym>Campground</sym><type>Open-Potential</type></wpt><wpt lat="46.13344" lon="-81.56186"><name>204</name><desc><![CDATA[Killarney 204, Open-Potential]]></desc><link href="https://www.paddleplanner.com/tools/campsite.aspx?campid=65106"><text>More info on Paddle Planner.com</text></link><sym>Campground</sym><type>Open-Potential</type></wpt><wpt lat="46.13443" lon="-81.55289"><name>205</name><desc><![CDATA[Killarney 205, Open-Potential]]></desc><link href="https://www.paddleplanner.com/tools/campsite.aspx?campid=65107"><text>More info on Paddle Planner.com</text></link><sym>Campground</sym><type>Open-Potential</type></wpt><wpt lat="46.13268" lon="-81.54502"><name>206</name><desc><![CDATA[Killarney 206, Open-Potential]]></desc><link href="https://www.paddleplanner.com/tools/campsite.aspx?campid=65108"><text>More info on Paddle Planner.com</text></link><sym>Campground</sym><type>Open-Potential</type></wpt><wpt lat="46.10675" lon="-81.56076"><name>217</name><desc><![CDATA[Killarney 217, Open-Potential]]></desc><link href="https://www.paddleplanner.com/tools/campsite.aspx?campid=65109"><text>More info on Paddle Planner.com</text></link><sym>Campground</sym><type>Open-Potential</type></wpt><wpt lat="46.1133" lon="-81.55266"><name>211</name><desc><![CDATA[Killarney 211, Open-Potential]]></desc><link href="https://www.paddleplanner.com/tools/campsite.aspx?campid=65110"><text>More info on Paddle Planner.com</text></link><sym>Campground</sym><type>Open-Potential</type></wpt><wpt lat="46.11126" lon="-81.56802"><name>213</name><desc><![CDATA[Killarney 213, Open-Potential]]></desc><link href="https://www.paddleplanner.com/tools/campsite.aspx?campid=65111"><text>More info on Paddle Planner.com</text></link><sym>Campground</sym><type>Open-Potential</type></wpt><wpt lat="46.10531" lon="-81.5653"><name>212</name><desc><![CDATA[Killarney 212, Closed-Unverified]]></desc><link href="https://www.paddleplanner.com/tools/campsite.aspx?campid=65112"><text>More info on Paddle Planner.com</text></link><sym>Navaid, Black</sym><type>Closed-Unverified</type></wpt><wpt lat="46.11616" lon="-81.60045"><name>216</name><desc><![CDATA[Killarney 216, Open-Potential]]></desc><link href="https://www.paddleplanner.com/tools/campsite.aspx?campid=65113"><text>More info on Paddle Planner.com</text></link><sym>Campground</sym><type>Open-Potential</type></wpt><wpt lat="46.10925" lon="-81.59001"><name>215</name><desc><![CDATA[Killarney 215, Open-Potential]]></desc><link href="https://www.paddleplanner.com/tools/campsite.aspx?campid=65114"><text>More info on Paddle Planner.com</text></link><sym>Campground</sym><type>Open-Potential</type></wpt><wpt lat="46.10768" lon="-81.57738"><name>214</name><desc><![CDATA[Killarney 214, Open-Potential]]></desc><link href="https://www.paddleplanner.com/tools/campsite.aspx?campid=65115"><text>More info on Paddle Planner.com</text></link><sym>Campground</sym><type>Open-Potential</type></wpt><wpt lat="46.09136" lon="-81.55973"><name>218</name><desc><![CDATA[Killarney 218, Open-Potential]]></desc><link href="https://www.paddleplanner.com/tools/campsite.aspx?campid=65116"><text>More info on Paddle Planner.com</text></link><sym>Campground</sym><type>Open-Potential</type></wpt><wpt lat="46.08988" lon="-81.56218"><name>219</name><desc><![CDATA[Killarney 219, Open-Potential]]></desc><link href="https://www.paddleplanner.com/tools/campsite.aspx?campid=65117"><text>More info on Paddle Planner.com</text></link><sym>Campground</sym><type>Open-Potential</type></wpt><wpt lat="46.14869" lon="-81.56124"><name>222</name><desc><![CDATA[Killarney 222, Open-Potential]]></desc><link href="https://www.paddleplanner.com/tools/campsite.aspx?campid=65118"><text>More info on Paddle Planner.com</text></link><sym>Campground</sym><type>Open-Potential</type></wpt><wpt lat="46.14448" lon="-81.56333"><name>221</name><desc><![CDATA[Killarney 221, Open-Potential]]></desc><link href="https://www.paddleplanner.com/tools/campsite.aspx?campid=65119"><text>More info on Paddle Planner.com</text></link><sym>Campground</sym><type>Open-Potential</type></wpt><wpt lat="46.14487" lon="-81.55596"><name>223</name><desc><![CDATA[Killarney 223, Open-Potential]]></desc><link href="https://www.paddleplanner.com/tools/campsite.aspx?campid=65120"><text>More info on Paddle Planner.com</text></link><sym>Campground</sym><type>Open-Potential</type></wpt><wpt lat="46.15481" lon="-81.55388"><name>224</name><desc><![CDATA[Killarney 224, Open-Potential]]></desc><link href="https://www.paddleplanner.com/tools/campsite.aspx?campid=65121"><text>More info on Paddle Planner.com</text></link><sym>Campground</sym><type>Open-Potential</type></wpt><wpt lat="46.15912" lon="-81.55131"><name>225</name><desc><![CDATA[Killarney 225, Open-Potential]]></desc><link href="https://www.paddleplanner.com/tools/campsite.aspx?campid=65122"><text>More info on Paddle Planner.com</text></link><sym>Campground</sym><type>Open-Potential</type></wpt><wpt lat="46.16024" lon="-81.53561"><name>226</name><desc><![CDATA[Killarney 226, Open-Potential]]></desc><link href="https://www.paddleplanner.com/tools/campsite.aspx?campid=65123"><text>More info on Paddle Planner.com</text></link><sym>Campground</sym><type>Open-Potential</type></wpt><wpt lat="46.16369" lon="-81.52479"><name>227</name><desc><![CDATA[Killarney 227, Open-Potential]]></desc><link href="https://www.paddleplanner.com/tools/campsite.aspx?campid=65124"><text>More info on Paddle Planner.com</text></link><sym>Campground</sym><type>Open-Potential</type></wpt><wpt lat="46.16866" lon="-81.51038"><name>231</name><desc><![CDATA[Killarney 231, Open-Potential]]></desc><link href="https://www.paddleplanner.com/tools/campsite.aspx?campid=65125"><text>More info on Paddle Planner.com</text></link><sym>Campground</sym><type>Open-Potential</type></wpt><wpt lat="46.16962" lon="-81.49003"><name>232</name><desc><![CDATA[Killarney 232, Open-Potential]]></desc><link href="https://www.paddleplanner.com/tools/campsite.aspx?campid=65126"><text>More info on Paddle Planner.com</text></link><sym>Campground</sym><type>Open-Potential</type></wpt><wpt lat="46.16811" lon="-81.47978"><name>233</name><desc><![CDATA[Killarney 233, Open-Potential]]></desc><link href="https://www.paddleplanner.com/tools/campsite.aspx?campid=65127"><text>More info on Paddle Planner.com</text></link><sym>Campground</sym><type>Open-Potential</type></wpt><wpt lat="46.17068" lon="-81.46207"><name>234</name><desc><![CDATA[Killarney 234, Open-Potential]]></desc><link href="https://www.paddleplanner.com/tools/campsite.aspx?campid=65128"><text>More info on Paddle Planner.com</text></link><sym>Campground</sym><type>Open-Potential</type></wpt><wpt lat="46.16957" lon="-81.45004"><name>235</name><desc><![CDATA[Killarney 235, Open-Potential]]></desc><link href="https://www.paddleplanner.com/tools/campsite.aspx?campid=65129"><text>More info on Paddle Planner.com</text></link><sym>Campground</sym><type>Open-Potential</type></wpt><wpt lat="46.17411" lon="-81.43791"><name>236</name><desc><![CDATA[Killarney 236, Open-Potential]]></desc><link href="https://www.paddleplanner.com/tools/campsite.aspx?campid=65130"><text>More info on Paddle Planner.com</text></link><sym>Campground</sym><type>Open-Potential</type></wpt><wpt lat="46.16776" lon="-81.39086"><name>237</name><desc><![CDATA[Killarney 237, Open-Potential]]></desc><link href="https://www.paddleplanner.com/tools/campsite.aspx?campid=65131"><text>More info on Paddle Planner.com</text></link><sym>Campground</sym><type>Open-Potential</type></wpt><wpt lat="46.16938" lon="-81.37818"><name>238</name><desc><![CDATA[Killarney 238, Open-Potential]]></desc><link href="https://www.paddleplanner.com/tools/campsite.aspx?campid=65132"><text>More info on Paddle Planner.com</text></link><sym>Campground</sym><type>Open-Potential</type></wpt><wpt lat="46.15922" lon="-81.36042"><name>241</name><desc><![CDATA[Killarney 241, Open-Potential]]></desc><link href="https://www.paddleplanner.com/tools/campsite.aspx?campid=65133"><text>More info on Paddle Planner.com</text></link><sym>Campground</sym><type>Open-Potential</type></wpt><wpt lat="46.15804" lon="-81.34188"><name>242</name><desc><![CDATA[Killarney 242, Open-Potential]]></desc><link href="https://www.paddleplanner.com/tools/campsite.aspx?campid=65134"><text>More info on Paddle Planner.com</text></link><sym>Campground</sym><type>Open-Potential</type></wpt><wpt lat="46.14853" lon="-81.35826"><name>243</name><desc><![CDATA[Killarney 243, Open-Potential]]></desc><link href="https://www.paddleplanner.com/tools/campsite.aspx?campid=65135"><text>More info on Paddle Planner.com</text></link><sym>Campground</sym><type>Open-Potential</type></wpt><wpt lat="46.15294" lon="-81.37107"><name>244</name><desc><![CDATA[Killarney 244, Open-Potential]]></desc><link href="https://www.paddleplanner.com/tools/campsite.aspx?campid=65136"><text>More info on Paddle Planner.com</text></link><sym>Campground</sym><type>Open-Potential</type></wpt><wpt lat="46.1551" lon="-81.47924"><name>246</name><desc><![CDATA[Killarney 246, Open-Potential]]></desc><link href="https://www.paddleplanner.com/tools/campsite.aspx?campid=65137"><text>More info on Paddle Planner.com</text></link><sym>Campground</sym><type>Open-Potential</type></wpt><wpt lat="46.15742" lon="-81.46631"><name>245</name><desc><![CDATA[Killarney 245, Open-Potential]]></desc><link href="https://www.paddleplanner.com/tools/campsite.aspx?campid=65138"><text>More info on Paddle Planner.com</text></link><sym>Campground</sym><type>Open-Potential</type></wpt><wpt lat="46.07005" lon="-81.56209"><name>301</name><desc><![CDATA[Killarney 301, Open-Potential]]></desc><link href="https://www.paddleplanner.com/tools/campsite.aspx?campid=65139"><text>More info on Paddle Planner.com</text></link><sym>Campground</sym><type>Open-Potential</type></wpt><wpt lat="46.06959" lon="-81.56846"><name>302</name><desc><![CDATA[Killarney 302, Open-Potential]]></desc><link href="https://www.paddleplanner.com/tools/campsite.aspx?campid=65140"><text>More info on Paddle Planner.com</text></link><sym>Campground</sym><type>Open-Potential</type></wpt><wpt lat="46.0589" lon="-81.55149"><name>303</name><desc><![CDATA[Killarney 303, Open-Potential]]></desc><link href="https://www.paddleplanner.com/tools/campsite.aspx?campid=65141"><text>More info on Paddle Planner.com</text></link><sym>Campground</sym><type>Open-Potential</type></wpt><wpt lat="46.07273" lon="-81.46248"><name>311</name><desc><![CDATA[Killarney 311, Closed-Unverified]]></desc><link href="https://www.paddleplanner.com/tools/campsite.aspx?campid=65142"><text>More info on Paddle Planner.com</text></link><sym>Navaid, Black</sym><type>Closed-Unverified</type></wpt><wpt lat="46.07715" lon="-81.45633"><name>312</name><desc><![CDATA[Killarney 312, Open-Potential]]></desc><link href="https://www.paddleplanner.com/tools/campsite.aspx?campid=65143"><text>More info on Paddle Planner.com</text></link><sym>Campground</sym><type>Open-Potential</type></wpt><wpt lat="46.08505" lon="-81.44433"><name>313</name><desc><![CDATA[Killarney 313, Open-Potential]]></desc><link href="https://www.paddleplanner.com/tools/campsite.aspx?campid=65144"><text>More info on Paddle Planner.com</text></link><sym>Campground</sym><type>Open-Potential</type></wpt><wpt lat="46.07912" lon="-81.42346"><name>317</name><desc><![CDATA[Killarney 317, Open-Potential]]></desc><link href="https://www.paddleplanner.com/tools/campsite.aspx?campid=65145"><text>More info on Paddle Planner.com</text></link><sym>Campground</sym><type>Open-Potential</type></wpt><wpt lat="46.09776" lon="-81.39822"><name>319</name><desc><![CDATA[Killarney 319, Open-Potential]]></desc><link href="https://www.paddleplanner.com/tools/campsite.aspx?campid=65146"><text>More info on Paddle Planner.com</text></link><sym>Campground</sym><type>Open-Potential</type></wpt><wpt lat="46.09572" lon="-81.39932"><name>318</name><desc><![CDATA[Killarney 318, Open-Potential]]></desc><link href="https://www.paddleplanner.com/tools/campsite.aspx?campid=65147"><text>More info on Paddle Planner.com</text></link><sym>Campground</sym><type>Open-Potential</type></wpt><wpt lat="46.10375" lon="-81.37457"><name>324</name><desc><![CDATA[Killarney 324, Open-Potential]]></desc><link href="https://www.paddleplanner.com/tools/campsite.aspx?campid=65148"><text>More info on Paddle Planner.com</text></link><sym>Campground</sym><type>Open-Potential</type></wpt><wpt lat="46.10482" lon="-81.37826"><name>323</name><desc><![CDATA[Killarney 323, Open-Potential]]></desc><link href="https://www.paddleplanner.com/tools/campsite.aspx?campid=65149"><text>More info on Paddle Planner.com</text></link><sym>Campground</sym><type>Open-Potential</type></wpt><wpt lat="46.10255" lon="-81.38802"><name>320</name><desc><![CDATA[Killarney 320, Open-Potential]]></desc><link href="https://www.paddleplanner.com/tools/campsite.aspx?campid=65150"><text>More info on Paddle Planner.com</text></link><sym>Campground</sym><type>Open-Potential</type></wpt><wpt lat="46.11279" lon="-81.37757"><name>321</name><desc><![CDATA[Killarney 321, Closed-Unverified]]></desc><link href="https://www.paddleplanner.com/tools/campsite.aspx?campid=65151"><text>More info on Paddle Planner.com</text></link><sym>Navaid, Black</sym><type>Closed-Unverified</type></wpt><wpt lat="46.11806" lon="-81.4034"><name>326</name><desc><![CDATA[Killarney 326, Open-Potential]]></desc><link href="https://www.paddleplanner.com/tools/campsite.aspx?campid=65152"><text>More info on Paddle Planner.com</text></link><sym>Campground</sym><type>Open-Potential</type></wpt><wpt lat="46.11919" lon="-81.42017"><name>315</name><desc><![CDATA[Killarney 315, Open-Potential]]></desc><link href="https://www.paddleplanner.com/tools/campsite.aspx?campid=65153"><text>More info on Paddle Planner.com</text></link><sym>Campground</sym><type>Open-Potential</type></wpt><wpt lat="46.11612" lon="-81.44704"><name>314</name><desc><![CDATA[Killarney 314, Open-Potential]]></desc><link href="https://www.paddleplanner.com/tools/campsite.aspx?campid=65154"><text>More info on Paddle Planner.com</text></link><sym>Campground</sym><type>Open-Potential</type></wpt><wpt lat="46.0953" lon="-81.41379"><name>316</name><desc><![CDATA[Killarney 316, Open-Potential]]></desc><link href="https://www.paddleplanner.com/tools/campsite.aspx?campid=65155"><text>More info on Paddle Planner.com</text></link><sym>Campground</sym><type>Open-Potential</type></wpt><wpt lat="46.21001" lon="-81.32963"><name>401</name><desc><![CDATA[Killarney 401, Open-Potential]]></desc><link href="https://www.paddleplanner.com/tools/campsite.aspx?campid=65156"><text>More info on Paddle Planner.com</text></link><sym>Campground</sym><type>Open-Potential</type></wpt><wpt lat="46.21423" lon="-81.35598"><name>402</name><desc><![CDATA[Killarney 402, Open-Potential]]></desc><link href="https://www.paddleplanner.com/tools/campsite.aspx?campid=65157"><text>More info on Paddle Planner.com</text></link><sym>Campground</sym><type>Open-Potential</type></wpt><wpt lat="46.24691" lon="-81.43314"><name>404</name><desc><![CDATA[Killarney 404, Open-Potential]]></desc><link href="https://www.paddleplanner.com/tools/campsite.aspx?campid=65158"><text>More info on Paddle Planner.com</text></link><sym>Campground</sym><type>Open-Potential</type></wpt><wpt lat="46.2266" lon="-81.48937"><name>406</name><desc><![CDATA[Killarney 406, Open-Potential]]></desc><link href="https://www.paddleplanner.com/tools/campsite.aspx?campid=65159"><text>More info on Paddle Planner.com</text></link><sym>Campground</sym><type>Open-Potential</type></wpt><wpt lat="46.23954" lon="-81.4594"><name>405</name><desc><![CDATA[Killarney 405, Open-Potential]]></desc><link href="https://www.paddleplanner.com/tools/campsite.aspx?campid=65160"><text>More info on Paddle Planner.com</text></link><sym>Campground</sym><type>Open-Potential</type></wpt><wpt lat="46.21731" lon="-81.48849"><name>407</name><desc><![CDATA[Killarney 407, Open-Potential]]></desc><link href="https://www.paddleplanner.com/tools/campsite.aspx?campid=65161"><text>More info on Paddle Planner.com</text></link><sym>Campground</sym><type>Open-Potential</type></wpt><wpt lat="46.21114" lon="-81.49309"><name>410</name><desc><![CDATA[Killarney 410, Open-Potential]]></desc><link href="https://www.paddleplanner.com/tools/campsite.aspx?campid=65162"><text>More info on Paddle Planner.com</text></link><sym>Campground</sym><type>Open-Potential</type></wpt><wpt lat="46.20057" lon="-81.49844"><name>411</name><desc><![CDATA[Killarney 411, Open-Potential]]></desc><link href="https://www.paddleplanner.com/tools/campsite.aspx?campid=65163"><text>More info on Paddle Planner.com</text></link><sym>Campground</sym><type>Open-Potential</type></wpt><wpt lat="46.19703" lon="-81.50346"><name>412</name><desc><![CDATA[Killarney 412, Open-Potential]]></desc><link href="https://www.paddleplanner.com/tools/campsite.aspx?campid=65164"><text>More info on Paddle Planner.com</text></link><sym>Campground</sym><type>Open-Potential</type></wpt><wpt lat="46.18818" lon="-81.51566"><name>418</name><desc><![CDATA[Killarney 418, Open-Potential]]></desc><link href="https://www.paddleplanner.com/tools/campsite.aspx?campid=65165"><text>More info on Paddle Planner.com</text></link><sym>Campground</sym><type>Open-Potential</type></wpt><wpt lat="46.18431" lon="-81.50973"><name>413</name><desc><![CDATA[Killarney 413, Open-Potential]]></desc><link href="https://www.paddleplanner.com/tools/campsite.aspx?campid=65166"><text>More info on Paddle Planner.com</text></link><sym>Campground</sym><type>Open-Potential</type></wpt><wpt lat="46.18087" lon="-81.50819"><name>414</name><desc><![CDATA[Killarney 414, Open-Potential]]></desc><link href="https://www.paddleplanner.com/tools/campsite.aspx?campid=65167"><text>More info on Paddle Planner.com</text></link><sym>Campground</sym><type>Open-Potential</type></wpt><wpt lat="46.17705" lon="-81.49929"><name>417</name><desc><![CDATA[Killarney 417, Closed-Unverified]]></desc><link href="https://www.paddleplanner.com/tools/campsite.aspx?campid=65168"><text>More info on Paddle Planner.com</text></link><sym>Navaid, Black</sym><type>Closed-Unverified</type></wpt><wpt lat="46.17114" lon="-81.52195"><name>416</name><desc><![CDATA[Killarney 416, Open-Potential]]></desc><link href="https://www.paddleplanner.com/tools/campsite.aspx?campid=65169"><text>More info on Paddle Planner.com</text></link><sym>Campground</sym><type>Open-Potential</type></wpt><wpt lat="46.17389" lon="-81.53201"><name>415</name><desc><![CDATA[Killarney 415, Open-Potential]]></desc><link href="https://www.paddleplanner.com/tools/campsite.aspx?campid=65170"><text>More info on Paddle Planner.com</text></link><sym>Campground</sym><type>Open-Potential</type></wpt><wpt lat="46.17473" lon="-81.48097"><name>421</name><desc><![CDATA[Killarney 421, Open-Potential]]></desc><link href="https://www.paddleplanner.com/tools/campsite.aspx?campid=65171"><text>More info on Paddle Planner.com</text></link><sym>Campground</sym><type>Open-Potential</type></wpt><wpt lat="46.17444" lon="-81.47561"><name>422</name><desc><![CDATA[Killarney 422, Open-Potential]]></desc><link href="https://www.paddleplanner.com/tools/campsite.aspx?campid=65172"><text>More info on Paddle Planner.com</text></link><sym>Campground</sym><type>Open-Potential</type></wpt><wpt lat="46.18581" lon="-81.4462"><name>424</name><desc><![CDATA[Killarney 424, Open-Potential]]></desc><link href="https://www.paddleplanner.com/tools/campsite.aspx?campid=65173"><text>More info on Paddle Planner.com</text></link><sym>Campground</sym><type>Open-Potential</type></wpt><wpt lat="46.19293" lon="-81.4531"><name>425</name><desc><![CDATA[Killarney 425, Open-Potential]]></desc><link href="https://www.paddleplanner.com/tools/campsite.aspx?campid=65174"><text>More info on Paddle Planner.com</text></link><sym>Campground</sym><type>Open-Potential</type></wpt><wpt lat="46.1976" lon="-81.42343"><name>426</name><desc><![CDATA[Killarney 426, Open-Potential]]></desc><link href="https://www.paddleplanner.com/tools/campsite.aspx?campid=65175"><text>More info on Paddle Planner.com</text></link><sym>Campground</sym><type>Open-Potential</type></wpt><wpt lat="46.18093" lon="-81.43104"><name>423</name><desc><![CDATA[Killarney 423, Open-Potential]]></desc><link href="https://www.paddleplanner.com/tools/campsite.aspx?campid=65176"><text>More info on Paddle Planner.com</text></link><sym>Campground</sym><type>Open-Potential</type></wpt><wpt lat="46.20499" lon="-81.41492"><name>427</name><desc><![CDATA[Killarney 427, Open-Potential]]></desc><link href="https://www.paddleplanner.com/tools/campsite.aspx?campid=65177"><text>More info on Paddle Planner.com</text></link><sym>Campground</sym><type>Open-Potential</type></wpt><wpt lat="46.02555" lon="-81.43042"><name>H1</name><desc><![CDATA[Killarney H1, Open-Potential]]></desc><link href="https://www.paddleplanner.com/tools/campsite.aspx?campid=65178"><text>More info on Paddle Planner.com</text></link><sym>Campground</sym><type>Open-Potential</type></wpt><wpt lat="46.02787" lon="-81.43391"><name>H2</name><desc><![CDATA[Killarney H2, Open-Potential]]></desc><link href="https://www.paddleplanner.com/tools/campsite.aspx?campid=65179"><text>More info on Paddle Planner.com</text></link><sym>Campground</sym><type>Open-Potential</type></wpt><wpt lat="46.03327" lon="-81.44183"><name>H3</name><desc><![CDATA[Killarney H3, Open-Potential]]></desc><link href="https://www.paddleplanner.com/tools/campsite.aspx?campid=65180"><text>More info on Paddle Planner.com</text></link><sym>Campground</sym><type>Open-Potential</type></wpt><wpt lat="46.03581" lon="-81.44085"><name>H4</name><desc><![CDATA[Killarney H4, Open-Potential]]></desc><link href="https://www.paddleplanner.com/tools/campsite.aspx?campid=65181"><text>More info on Paddle Planner.com</text></link><sym>Campground</sym><type>Open-Potential</type></wpt><wpt lat="46.04548" lon="-81.45911"><name>H5</name><desc><![CDATA[Killarney H5, Open-Potential]]></desc><link href="https://www.paddleplanner.com/tools/campsite.aspx?campid=65182"><text>More info on Paddle Planner.com</text></link><sym>Campground</sym><type>Open-Potential</type></wpt><wpt lat="46.04607" lon="-81.46276"><name>H6</name><desc><![CDATA[Killarney H6, Open-Potential]]></desc><link href="https://www.paddleplanner.com/tools/campsite.aspx?campid=65183"><text>More info on Paddle Planner.com</text></link><sym>Campground</sym><type>Open-Potential</type></wpt><wpt lat="46.05424" lon="-81.47913"><name>H7</name><desc><![CDATA[Killarney H7, Open-Potential]]></desc><link href="https://www.paddleplanner.com/tools/campsite.aspx?campid=65184"><text>More info on Paddle Planner.com</text></link><sym>Campground</sym><type>Open-Potential</type></wpt><wpt lat="46.06392" lon="-81.48529"><name>H8</name><desc><![CDATA[Killarney H8, Open-Potential]]></desc><link href="https://www.paddleplanner.com/tools/campsite.aspx?campid=65185"><text>More info on Paddle Planner.com</text></link><sym>Campground</sym><type>Open-Potential</type></wpt><wpt lat="46.07909" lon="-81.4738"><name>H16</name><desc><![CDATA[Killarney H16, Open-Potential]]></desc><link href="https://www.paddleplanner.com/tools/campsite.aspx?campid=65186"><text>More info on Paddle Planner.com</text></link><sym>Campground</sym><type>Open-Potential</type></wpt><wpt lat="46.09821" lon="-81.45228"><name>H17</name><desc><![CDATA[Killarney H17, Open-Potential]]></desc><link href="https://www.paddleplanner.com/tools/campsite.aspx?campid=65187"><text>More info on Paddle Planner.com</text></link><sym>Campground</sym><type>Open-Potential</type></wpt><wpt lat="46.1057" lon="-81.45565"><name>H18</name><desc><![CDATA[Killarney H18, Open-Potential]]></desc><link href="https://www.paddleplanner.com/tools/campsite.aspx?campid=65188"><text>More info on Paddle Planner.com</text></link><sym>Campground</sym><type>Open-Potential</type></wpt><wpt lat="46.10972" lon="-81.45111"><name>H19</name><desc><![CDATA[Killarney H19, Open-Potential]]></desc><link href="https://www.paddleplanner.com/tools/campsite.aspx?campid=65189"><text>More info on Paddle Planner.com</text></link><sym>Campground</sym><type>Open-Potential</type></wpt><wpt lat="46.11304" lon="-81.48829"><name>H20</name><desc><![CDATA[Killarney H20, Open-Potential]]></desc><link href="https://www.paddleplanner.com/tools/campsite.aspx?campid=65190"><text>More info on Paddle Planner.com</text></link><sym>Campground</sym><type>Open-Potential</type></wpt><wpt lat="46.10822" lon="-81.49001"><name>H59</name><desc><![CDATA[Killarney H59, Open-Potential]]></desc><link href="https://www.paddleplanner.com/tools/campsite.aspx?campid=65191"><text>More info on Paddle Planner.com</text></link><sym>Campground</sym><type>Open-Potential</type></wpt><wpt lat="46.11711" lon="-81.45783"><name>H21</name><desc><![CDATA[Killarney H21, Open-Potential]]></desc><link href="https://www.paddleplanner.com/tools/campsite.aspx?campid=65192"><text>More info on Paddle Planner.com</text></link><sym>Campground</sym><type>Open-Potential</type></wpt><wpt lat="46.13146" lon="-81.43198"><name>H22</name><desc><![CDATA[Killarney H22, Open-Potential]]></desc><link href="https://www.paddleplanner.com/tools/campsite.aspx?campid=65193"><text>More info on Paddle Planner.com</text></link><sym>Campground</sym><type>Open-Potential</type></wpt><wpt lat="46.13276" lon="-81.42667"><name>H23</name><desc><![CDATA[Killarney H23, Open-Potential]]></desc><link href="https://www.paddleplanner.com/tools/campsite.aspx?campid=65194"><text>More info on Paddle Planner.com</text></link><sym>Campground</sym><type>Open-Potential</type></wpt><wpt lat="46.14513" lon="-81.38765"><name>H31</name><desc><![CDATA[Killarney H31, Open-Potential]]></desc><link href="https://www.paddleplanner.com/tools/campsite.aspx?campid=65195"><text>More info on Paddle Planner.com</text></link><sym>Campground</sym><type>Open-Potential</type></wpt><wpt lat="46.147" lon="-81.39144"><name>H32</name><desc><![CDATA[Killarney H32, Open-Potential]]></desc><link href="https://www.paddleplanner.com/tools/campsite.aspx?campid=65196"><text>More info on Paddle Planner.com</text></link><sym>Campground</sym><type>Open-Potential</type></wpt><wpt lat="46.14501" lon="-81.3657"><name>H33</name><desc><![CDATA[Killarney H33, Open-Potential]]></desc><link href="https://www.paddleplanner.com/tools/campsite.aspx?campid=65197"><text>More info on Paddle Planner.com</text></link><sym>Campground</sym><type>Open-Potential</type></wpt><wpt lat="46.13891" lon="-81.30652"><name>H34</name><desc><![CDATA[Killarney H34, Open-Potential]]></desc><link href="https://www.paddleplanner.com/tools/campsite.aspx?campid=65198"><text>More info on Paddle Planner.com</text></link><sym>Campground</sym><type>Open-Potential</type></wpt><wpt lat="46.13188" lon="-81.31386"><name>H35</name><desc><![CDATA[Killarney H35, Open-Potential]]></desc><link href="https://www.paddleplanner.com/tools/campsite.aspx?campid=65199"><text>More info on Paddle Planner.com</text></link><sym>Campground</sym><type>Open-Potential</type></wpt><wpt lat="46.11435" lon="-81.2681"><name>H37</name><desc><![CDATA[Killarney H37, Open-Potential]]></desc><link href="https://www.paddleplanner.com/tools/campsite.aspx?campid=65200"><text>More info on Paddle Planner.com</text></link><sym>Campground</sym><type>Open-Potential</type></wpt><wpt lat="46.11332" lon="-81.26836"><name>H38</name><desc><![CDATA[Killarney H38, Open-Potential]]></desc><link href="https://www.paddleplanner.com/tools/campsite.aspx?campid=65201"><text>More info on Paddle Planner.com</text></link><sym>Campground</sym><type>Open-Potential</type></wpt><wpt lat="46.08485" lon="-81.27502"><name>H45</name><desc><![CDATA[Killarney H45, Open-Potential]]></desc><link href="https://www.paddleplanner.com/tools/campsite.aspx?campid=65202"><text>More info on Paddle Planner.com</text></link><sym>Campground</sym><type>Open-Potential</type></wpt><wpt lat="46.0838" lon="-81.27408"><name>H46</name><desc><![CDATA[Killarney H46, Open-Potential]]></desc><link href="https://www.paddleplanner.com/tools/campsite.aspx?campid=65203"><text>More info on Paddle Planner.com</text></link><sym>Campground</sym><type>Open-Potential</type></wpt><wpt lat="46.07972" lon="-81.29384"><name>H47</name><desc><![CDATA[Killarney H47, Open-Potential]]></desc><link href="https://www.paddleplanner.com/tools/campsite.aspx?campid=65204"><text>More info on Paddle Planner.com</text></link><sym>Campground</sym><type>Open-Potential</type></wpt><wpt lat="46.07603" lon="-81.32814"><name>H48</name><desc><![CDATA[Killarney H48, Open-Potential]]></desc><link href="https://www.paddleplanner.com/tools/campsite.aspx?campid=65205"><text>More info on Paddle Planner.com</text></link><sym>Campground</sym><type>Open-Potential</type></wpt><wpt lat="46.07383" lon="-81.33001"><name>H49</name><desc><![CDATA[Killarney H49, Open-Potential]]></desc><link href="https://www.paddleplanner.com/tools/campsite.aspx?campid=65206"><text>More info on Paddle Planner.com</text></link><sym>Campground</sym><type>Open-Potential</type></wpt><wpt lat="46.04012" lon="-81.34958"><name>H50</name><desc><![CDATA[Killarney H50, Open-Potential]]></desc><link href="https://www.paddleplanner.com/tools/campsite.aspx?campid=65207"><text>More info on Paddle Planner.com</text></link><sym>Campground</sym><type>Open-Potential</type></wpt><wpt lat="46.03146" lon="-81.37882"><name>H51</name><desc><![CDATA[Killarney H51, Open-Potential]]></desc><link href="https://www.paddleplanner.com/tools/campsite.aspx?campid=65208"><text>More info on Paddle Planner.com</text></link><sym>Campground</sym><type>Open-Potential</type></wpt><wpt lat="46.03206" lon="-81.37933"><name>H52</name><desc><![CDATA[Killarney H52, Open-Potential]]></desc><link href="https://www.paddleplanner.com/tools/campsite.aspx?campid=65209"><text>More info on Paddle Planner.com</text></link><sym>Campground</sym><type>Open-Potential</type></wpt><wpt lat="46.02516" lon="-81.39177"><name>H53</name><desc><![CDATA[Killarney H53, Open-Potential]]></desc><link href="https://www.paddleplanner.com/tools/campsite.aspx?campid=65210"><text>More info on Paddle Planner.com</text></link><sym>Campground</sym><type>Open-Potential</type></wpt><wpt lat="46.02437" lon="-81.40124"><name>H54</name><desc><![CDATA[Killarney H54, Open-Potential]]></desc><link href="https://www.paddleplanner.com/tools/campsite.aspx?campid=65211"><text>More info on Paddle Planner.com</text></link><sym>Campground</sym><type>Open-Potential</type></wpt><wpt lat="46.16039" lon="-81.48318"><name>247</name><desc><![CDATA[Killarney 247, Open-Potential]]></desc><link href="https://www.paddleplanner.com/tools/campsite.aspx?campid=65212"><text>More info on Paddle Planner.com</text></link><sym>Campground</sym><type>Open-Potential</type></wpt><wpt lat="46.23592" lon="-81.37746"><name>403</name><desc><![CDATA[Killarney 403, Open-Potential]]></desc><link href="https://www.paddleplanner.com/tools/campsite.aspx?campid=65213"><text>More info on Paddle Planner.com</text></link><sym>Campground</sym><type>Open-Potential</type></wpt></gpx>