<?xml version="1.0"?>
<gpx xmlns="http://www.topografix.com/GPX/1/1" xmlns:gpxx="http://www.garmin.com/xmlschemas/GpxExtensions/v3" creator="CALTOPO" version="1.1"><metadata><name><![CDATA[Map Items]]></name></metadata><wpt lat="46.01498072667152" lon="-81.40354156494142"><name>George Lake Access</name></wpt><wpt lat="46.05339889651128" lon="-81.38689041137697"><name>Site 61</name></wpt><wpt lat="46.04422505722085" lon="-81.503963470459"><name>Site 82</name></wpt><wpt lat="46.055185830744755" lon="-81.36337280273439"><name>Site 12</name></wpt><rte><name>George Lake to 62</name><rtept lat="46.01496582495426" lon="-81.40341281890869"/><rtept lat="46.017201037671775" lon="-81.4040994644165"/><rtept lat="46.018720930712554" lon="-81.40255451202394"/><rtept lat="46.022505580854464" lon="-81.40568733215333"/><rtept lat="46.025306651132745" lon="-81.40590190887453"/><rtept lat="46.03129569755731" lon="-81.39358520507814"/><rtept lat="46.03430487393799" lon="-81.39105319976808"/><rtept lat="46.03522844966794" lon="-81.3834571838379"/><rtept lat="46.03537741204982" lon="-81.3810968399048"/><rtept lat="46.035342204170966" lon="-81.38109530189514"/><rtept lat="46.035359354535885" lon="-81.38028065954552"/><rtept lat="46.036479721195796" lon="-81.37517452239992"/><rtept lat="46.042020725964285" lon="-81.3565492630005"/><rtept lat="46.04205999999999" lon="-81.35651"/><rtept lat="46.04246" lon="-81.35603"/><rtept lat="46.04274" lon="-81.35583"/><rtept lat="46.04274" lon="-81.35583"/><rtept lat="46.04294" lon="-81.35567"/><rtept lat="46.04341" lon="-81.35554"/><rtept lat="46.04368" lon="-81.35568"/><rtept lat="46.04397" lon="-81.35575"/><rtept lat="46.04433" lon="-81.3559"/><rtept lat="46.04473" lon="-81.35596"/><rtept lat="46.04571" lon="-81.35624"/><rtept lat="46.04875259690417" lon="-81.3582229614258"/><rtept lat="46.04908023340329" lon="-81.36079788208009"/><rtept lat="46.052118224743" lon="-81.3614845275879"/><rtept lat="46.05557299220765" lon="-81.36547565460206"/><rtept lat="46.05697270715796" lon="-81.36491775512697"/><rtept lat="46.05712161091578" lon="-81.36393070220949"/><rtept lat="46.057062049460825" lon="-81.36307239532472"/><rtept lat="46.05840216665799" lon="-81.362042427063"/><rtept lat="46.06078451692505" lon="-81.37165546417236"/><rtept lat="46.060248497077055" lon="-81.37603282928468"/><rtept lat="46.05816392597776" lon="-81.37744903564455"/><rtept lat="46.05524539422343" lon="-81.37835025787355"/><rtept lat="46.05441149967598" lon="-81.37946605682374"/><rtept lat="46.05491779429578" lon="-81.38169765472414"/><rtept lat="46.054959612799735" lon="-81.38170474320454"/><rtept lat="46.05492" lon="-81.38219"/><rtept lat="46.05484" lon="-81.38258"/><rtept lat="46.05520100637732" lon="-81.38317517267612"/><rtept lat="46.05262454038696" lon="-81.40470027923585"/></rte><rte><name>62 to 82</name><rtept lat="46.0525947572423" lon="-81.40465736389162"/><rtept lat="46.057657661119286" lon="-81.41143798828125"/><rtept lat="46.05759810024254" lon="-81.42220973968507"/><rtept lat="46.057181172306485" lon="-81.42748832702637"/><rtept lat="46.05476888459532" lon="-81.42770290374757"/><rtept lat="46.052743672805086" lon="-81.43027782440186"/><rtept lat="46.05342867922229" lon="-81.44126415252687"/><rtept lat="46.05530495763783" lon="-81.44143581390381"/><rtept lat="46.0557814626403" lon="-81.44392490386964"/><rtept lat="46.054947576187686" lon="-81.44907474517824"/><rtept lat="46.0545604103401" lon="-81.45345211029054"/><rtept lat="46.052326708217365" lon="-81.4661979675293"/><rtept lat="46.050301406869586" lon="-81.46675586700441"/><rtept lat="46.049050448347316" lon="-81.46671295166017"/><rtept lat="46.04779946149287" lon="-81.47327899932863"/><rtept lat="46.048514314593234" lon="-81.47928714752199"/><rtept lat="46.04821646025904" lon="-81.48430824279787"/><rtept lat="46.044254844878765" lon="-81.50392055511476"/></rte><rte><name>82 to 12</name><rtept lat="46.04422505722085" lon="-81.50400638580324"/><rtept lat="46.048156889199475" lon="-81.48417949676515"/><rtept lat="46.0485440999383" lon="-81.47937297821046"/><rtept lat="46.04776967574627" lon="-81.47315025329591"/><rtept lat="46.04899087818719" lon="-81.4666271209717"/><rtept lat="46.05059924996085" lon="-81.46667003631593"/><rtept lat="46.0522373582533" lon="-81.4661979675293"/><rtept lat="46.05459019242475" lon="-81.45319461822511"/><rtept lat="46.05491779429578" lon="-81.44941806793214"/><rtept lat="46.05572189973985" lon="-81.44383907318117"/><rtept lat="46.05530495763783" lon="-81.44143581390381"/><rtept lat="46.05348824459617" lon="-81.44126415252687"/><rtept lat="46.052743672805086" lon="-81.43014907836915"/><rtept lat="46.05470932060272" lon="-81.4276170730591"/><rtept lat="46.05724073363294" lon="-81.42744541168214"/><rtept lat="46.05774700231395" lon="-81.4110517501831"/><rtept lat="46.05530495763783" lon="-81.3834571838379"/><rtept lat="46.05488801238783" lon="-81.3825559616089"/><rtept lat="46.05488801238783" lon="-81.3816547393799"/><rtept lat="46.054471063989816" lon="-81.37920856475831"/><rtept lat="46.055424084273916" lon="-81.37804985046388"/><rtept lat="46.059444457547954" lon="-81.37689113616943"/><rtept lat="46.06030805509492" lon="-81.37577533721925"/><rtept lat="46.06075473818113" lon="-81.3715696334839"/><rtept lat="46.05834260658429" lon="-81.362042427063"/><rtept lat="46.05712161091578" lon="-81.36307239532472"/><rtept lat="46.0569131455424" lon="-81.3649606704712"/><rtept lat="46.05563255526871" lon="-81.3651752471924"/><rtept lat="46.05506670359472" lon="-81.36332988739015"/></rte><rte><name>12 to George Lake</name><rtept lat="46.055185830744755" lon="-81.36341571807863"/><rtept lat="46.052058657891486" lon="-81.36139869689943"/><rtept lat="46.04899087818719" lon="-81.36075496673585"/><rtept lat="46.048633455877194" lon="-81.35813713073732"/><rtept lat="46.04574420729647" lon="-81.35629177093506"/><rtept lat="46.043093114318374" lon="-81.35560512542726"/><rtept lat="46.043096009223575" lon="-81.35562684863525"/><rtept lat="46.04294" lon="-81.35567"/><rtept lat="46.04274" lon="-81.35583"/><rtept lat="46.04274" lon="-81.35583"/><rtept lat="46.04246" lon="-81.35603"/><rtept lat="46.04207617145149" lon="-81.3564905942582"/><rtept lat="46.03644992934583" lon="-81.37500286102296"/><rtept lat="46.0353625158297" lon="-81.38036727905273"/><rtept lat="46.03537741204982" lon="-81.3812041282654"/><rtept lat="46.034319770443204" lon="-81.39101028442384"/><rtept lat="46.031236108251875" lon="-81.3936495780945"/><rtept lat="46.02533644898979" lon="-81.40577316284181"/><rtept lat="46.02259497890686" lon="-81.40577316284181"/><rtept lat="46.01863152639604" lon="-81.4025115966797"/><rtept lat="46.01669439737435" lon="-81.40431404113771"/><rtept lat="46.01502543179924" lon="-81.40358448028566"/></rte></gpx>